name,closed,lat,lng,city,state,country,url
Banff Sunshine,false,0.5107861e2,-0.11578222e3,Twin Cairns Meadow Park Trail,Alberta,Canada,http://www.skibanff.com/
Canmore Nordic Centre Provincial Park,false,0.510925e2,-0.11539e3,Olympic,Alberta,Canada,
Canyon Ski Area,false,0.52307389e2,-0.113685472e3,Red Deer County,Alberta,Canada,http://www.canyonski.ca/
Castle Mountain Resort,false,0.4931694e2,-0.11443028e3,Area A (Upper Flathead/Elk Valley),Alberta,Canada,http://www.skicastle.ca
Edmonton Ski Club,false,0.5353361e2,-0.11347528e3,Edmonton,Alberta,Canada,http://www.edmontonskiclub.com/
Fairview Ski Hill,false,0.5599556e2,-0.11860556e3,Fairview Ski Hill,Alberta,Canada,https://www.skifairview.com
Fortress Mountain Resort,false,0.5082778e2,-0.11520167e3,Fortress Ridge Trail,Alberta,Canada,
Lake Louise Ski Resort,false,0.5144194e2,-0.11616056e3,Whitehorn Road,Alberta,Canada,http://www.skilouise.com
Marmot Basin,false,0.5280111e2,-0.11808444e3,Marmot Road,Alberta,Canada,http://www.skimarmot.com/
Mt Norquay,false,0.51204e2,-0.115599e3,Mount Norquay Route,Alberta,Canada,http://www.banffnorquay.com/
Nakiska,false,0.50944e2,-0.115147e3,Division No. 15,Alberta,Canada,http://www.skinakiska.com/
Rabbit Hill Snow Resort,false,0.5338e2,-0.113671e3,Edmonton,Alberta,Canada,http://www.rabbithill.com
Silver Summit,false,0.5389389e2,-0.11656889e3,Division No. 14,Alberta,Canada,http://www.silversummit.ca/
Snow Valley Ski Club,false,0.5348417e2,-0.11355556e3,Edmonton,Alberta,Canada,http://www.snowvalley.ca/
Sunridge Ski Area,false,0.5356417e2,-0.11337056e3,Sherwood Park,Alberta,Canada,https://www.sunridgeskiarea.com/
Apex Mountain Resort,false,0.4939e2,-0.1199e3,Area I (Skaha West/Kaleden/Apex),British Columbia,Canada,https://apexresort.com/
Bear Mountain Ski Hill,false,0.557315e2,-0.12044616e3,Area D (Kiskatinaw Valley),British Columbia,Canada,
Big White Ski Resort,false,0.4972194e2,-0.11892889e3,Area E (Beaverdell/West Boundary),British Columbia,Canada,https://www.bigwhite.com/geo/on
Crystal Mountain,false,0.498813417e2,-0.1197112056e3,West Central Okanagan Electoral Area,British Columbia,Canada,
Cypress Mountain Ski Area,false,0.4939556e2,-0.12320333e3,West Vancouver,British Columbia,Canada,https://cypressmountain.com/
Fairmont Hot Springs,false,0.50317e2,-0.115867e3,Area F (Columbia Lake/Windermere Lake),British Columbia,Canada,
Fernie Alpine Resort,false,0.494625e2,-0.11508694e3,Area A (Upper Flathead/Elk Valley),British Columbia,Canada,https://skifernie.com/
Forbidden Plateau,false,0.4968333e2,-0.12531667e3,Area C (Puntledge/Black Creek),British Columbia,Canada,http://www.env.gov.bc.ca/bcparks/explore/parkpgs/strath/forbid.html
Grouse Mountain,false,0.493795556e2,-0.1230818028e3,Grouse Mountain Highway,British Columbia,Canada,https://www.grousemountain.com/
Harper Mountain,false,0.5072111e2,-0.12013222e3,Area P (Rivers and the Peaks),British Columbia,Canada,http://www.harpermountain.com
Hart Highlands Ski Hill,false,0.5398333e2,-0.12279222e3,Prince George,British Columbia,Canada,
Hudson Bay Mountain,false,0.5481167e2,-0.12733972e3,Area A (Hudson Bay Mountain),British Columbia,Canada,
Jumbo Glacier,false,0.5040833e2,-0.11656667e3,Jumbo Glacier Mountain Resort Municipality,British Columbia,Canada,http://www.jgmrm.ca/
Kicking Horse Resort,false,0.5128917e2,-0.11705861e3,Area A (Kicking Horse/Kinbasket Lake),British Columbia,Canada,http://www.kickinghorseresort.com/
Kimberley Alpine Resort,false,0.49685e2,-0.116014e3,Kimberley,British Columbia,Canada,https://skikimberley.com/
Little Mac Ski Hill,false,0.5533944e2,-0.12307639e3,Little Mac X-Country Ski Trail,British Columbia,Canada,
E. C. Manning Provincial Park,false,0.4906667e2,-0.12078333e3,Area H (Manning Park/Tulameen/Siwash),British Columbia,Canada,https://bcparks.ca/explore/parkpgs/ecmanning/
Mount Baldy Ski Area,false,0.4915389e2,-0.11923944e3,Area E (Beaverdell/West Boundary),British Columbia,Canada,https://baldyresort.com/
Mount Cain,false,0.50228611e2,-0.126326111e3,Area D (Nimpkish Valley/Cormorant Island),British Columbia,Canada,
Mount Seymour,false,0.4939333e2,-0.12294444e3,Mount Seymour Trail,British Columbia,Canada,http://www.mountseymour.com/
Mount Timothy Ski Area,false,0.5191556e2,-0.12125361e3,Area G (Lac La Hache/108 Mile Ranch),British Columbia,Canada,
Mount Washington Alpine Resort,false,0.4973833e2,-0.12529861e3,Area C (Puntledge/Black Creek),British Columbia,Canada,https://www.mountwashington.ca/
Murray Ridge Ski Area,false,0.5451806e2,-0.12421167e3,Area C (Stuart Lake/Omineca Valley),British Columbia,Canada,
Panorama Mountain Resort,false,0.5046028e2,-0.11623833e3,Area F (Columbia Lake/Windermere Lake),British Columbia,Canada,http://www.panoramaresort.com/
Phoenix Mountain Ski Resort,false,0.4910889e2,-0.11858611e3,Area D (Granby Valley),British Columbia,Canada,http://www.skiphoenix.com
Powder King Mountain Resort,false,0.5536306e2,-0.12262472e3,Area G (Crooked River/Parsnip),British Columbia,Canada,https://www.powderking.com/
Purden Ski Village,false,0.5390083e2,-0.12188611e3,Area F (Willow River/Upper Fraser),British Columbia,Canada,
Red Mountain Resort,false,0.4910278e2,-0.11782028e3,The Josie Hotel,British Columbia,Canada,http://www.redresort.com
Revelstoke Mountain Resort,false,0.5095417e2,-0.11815417e3,Revelstoke,British Columbia,Canada,http://www.revelstokemountainresort.com
Salmo Ski Area,false,0.491815e2,-0.1173015e3,Area G (Salmo Valley),British Columbia,Canada,
Sasquatch Mountain Resort,false,0.4937694e2,-0.121935e3,Area C (Sasquatch Country),British Columbia,Canada,
Shames Mountain Ski Area,false,0.5448417e2,-0.12895361e3,Area C (Butedale/Kitlope/Kitsumkalum),British Columbia,Canada,
Silver Star Mountain Resort,false,0.5035972e2,-0.11905806e3,Area C (Silver Star),British Columbia,Canada,https://www.skisilverstar.com/
Summit Lake Ski Area,false,0.5014611e2,-0.117615e3,Area H (The Slocan Valley),British Columbia,Canada,
Sun Peaks Resort,false,0.5089389e2,-0.11989306e3,Sun Peaks Mountain Resort Municipality,British Columbia,Canada,http://sunpeaksresort.com
Tabor Mountain Ski Resort,false,0.5394444e2,-0.12245389e3,Area F (Willow River/Upper Fraser),British Columbia,Canada,
Troll Ski Resort,false,0.5306667e2,-0.12195e3,Area C (Bowron Lake/Barlow Creek/Barkerville),British Columbia,Canada,
Whistler Blackcomb,false,0.5010833e2,-0.1229425e3,Whistler Village,British Columbia,Canada,https://www.whistlerblackcomb.com/
Whitewater Ski Resort,false,0.4944e2,-0.11715e3,Area E (Balfour/Cottonwood Lake),British Columbia,Canada,http://www.skiwhitewater.com/
Asessippi Ski Area,false,0.50951e2,-0.1013391e3,Rural Municipality of Riding Mountain West,Manitoba,Canada,http://www.asessippi.com/
Mount Agassiz Ski Resort,false,0.50761e2,-0.99675e2,Unorganized Division No. 17,Manitoba,Canada,http://www.skiagassiz.com/
Mystery Mountain Winter Park,false,0.558716e2,-0.977789e2,Mystery Mountain Winter Park,Manitoba,Canada,https://www.mysterymountain.ca/
Stony Mountain Ski Area,false,0.5009417e2,-0.9720667e2,Stony Mountain,Manitoba,Canada,
Thunderhill Ski Area,false,0.520157e2,-0.1016084e3,Rural Municipality of Swan Valley West,Manitoba,Canada,http://www.skithunderhill.ca/
Crabbe Mountain,false,0.4612028e2,-0.6710861e2,Central Hainesville,New Brunswick / Nouveau-Brunswick,Canada,http://www.crabbemountain.com
Poley Mountain,false,0.4567333e2,-0.6537667e2,Poley Mountain Ski Area,New Brunswick / Nouveau-Brunswick,Canada,http://www.poleymountain.com/
Sugarloaf Mountain,false,0.4798972e2,-0.6668556e2,Campbellton,New Brunswick / Nouveau-Brunswick,Canada,
Marble Mountain Ski Resort,false,0.4893667e2,-0.5782722e2,,Newfoundland and Labrador,Canada,http://www.skimarble.com/
White Hills Ski Resort,false,0.481625e2,-0.5404722e2,White Hills Road,Newfoundland and Labrador,Canada,http://www.whitehillsresort.com
Ben Eoin,false,0.4596778e2,-0.60455e2,Ben Eoin,Nova Scotia,Canada,
Ingonish,false,0.4663917e2,-0.6040806e2,Ingonish Beach,Nova Scotia,Canada,
Ski Martock,false,0.44932528e2,-0.64165194e2,Windsor Forks,Nova Scotia,Canada,http://www.martock.com/
Ski Wentworth,false,0.4561e2,-0.6355639e2,Wentworth Station,Nova Scotia,Canada,
Greater Sudbury,false,0.4657778e2,-0.8106944e2,Greater Sudbury,Ontario,Canada,
Mount Antoine,false,0.4636806e2,-0.7873472e2,Mattawan,Ontario,Canada,https://antoinemountain.ca
Batawa Ski Hill,false,0.4416667e2,-0.7759667e2,Quinte West,Ontario,Canada,http://batawaskihill.com/
Beaver Valley Ski Club,false,0.4435e2,-0.8053333e2,Grey Highlands,Ontario,Canada,http://www.beavervalley.ca/
Blue Mountain,false,0.4450278e2,-0.8031194e2,Events Plaza,Ontario,Canada,http://www.bluemountain.ca/
Boler Mountain,false,0.4294e2,-0.8134e2,London,Ontario,Canada,https://www.bolermountain.com
Calabogie Peaks,false,0.45275e2,-0.7678194e2,Greater Madawaska,Ontario,Canada,http://www.calabogie.com/
Centennial Park,false,0.4365278e2,-0.7958889e2,Toronto,Ontario,Canada,
Chicopee Ski Club,false,0.4343318e2,-0.80420684e2,Kitchener,Ontario,Canada,http://www.discoverchicopee.com/
Craigleith Ski Club,false,0.4451667e2,-0.8033333e2,Craigleith Road,Ontario,Canada,http://www.craigleith.com/
Georgian Peaks Club,false,0.44535e2,-0.803767e2,Wensley Drive,Ontario,Canada,http://www.georgianpeaks.com/
Kelso Conservation Area,false,0.4351111e2,-0.7994583e2,Kelso,Ontario,Canada,http://www.gleneden.on.ca/
Hardwood Ski and Bike,false,0.44517639e2,-0.79591833e2,Oro-Medonte,Ontario,Canada,
Hockley Valley Resort,false,0.439779e2,-0.800471e2,Mono,Ontario,Canada,http://www.hockley.com
Horseshoe Resort,false,0.44549659e2,-0.79672498e2,Oro-Medonte,Ontario,Canada,http://www.horseshoeresort.com/
Timmins,false,0.48467e2,-0.81333e2,Timmins,Ontario,Canada,http://www.timmins.ca
Kawartha Nordic Ski Club,false,0.446201e2,-0.781319e2,North Kawartha,Ontario,Canada,
Mansfield Ski Club,false,0.4419752e2,-0.8005378e2,Mulmur,Ontario,Canada,
Donald M. Gordon Chinguacousy Park,false,0.4372472e2,-0.7971806e2,Brampton,Ontario,Canada,
Mount Pakenham,false,0.4532056e2,-0.7633806e2,Mississippi Mills,Ontario,Canada,http://www.mountpakenham.com/
Mount St. Louis Moonstone,false,0.4462667e2,-0.7966861e2,Oro-Medonte,Ontario,Canada,http://www.mslm.on.ca/
Earl Bales Park,false,0.4375336e2,-0.7943368e2,Toronto,Ontario,Canada,http://www.toronto.ca/parks/recreation_facilities/skiing/northyorkski.htm
Beaver Valley,false,0.444e2,-0.805e2,Grey Highlands,Ontario,Canada,
Searchmont,false,0.46783e2,-0.8405e2,Unorganized North Algoma,Ontario,Canada,
Ski Snow Valley,false,0.444114e2,-0.797926e2,Springwater,Ontario,Canada,https://www.skisnowvalley.com/explore/report/
Beaver Valley,false,0.444e2,-0.805e2,Grey Highlands,Ontario,Canada,
Uplands Ski Centre,false,0.438247889e2,-0.794382944e2,Vaughan,Ontario,Canada,http://www.uplandsgolfandski.com/skihome.html
Brookvale Provincial Park,false,0.4628056e2,-0.6340972e2,Brookvale,Prince Edward Island,Canada,
Camp Fortune,false,0.45509e2,-0.75851e2,Chelsea,Québec,Canada,https://campfortune.com/en/
Groupe Plein Air Terrebonne,false,0.4571028e2,-0.7366333e2,Boulevard de Hauteville,Québec,Canada,http://www.gpat.ca/
Sommet Edelweiss,false,0.4564583e2,-0.7585139e2,La Pêche,Québec,Canada,https://www.sommets.com/en/ski-mountains/sommet-edelweiss
Gray Rocks,false,0.4615833e2,-0.7458889e2,Rue Labelle,Québec,Canada,
Le Massif,false,0.4728e2,-0.7061e2,Petite-Rivière-Saint-François,Québec,Canada,http://www.lemassif.com/en/
Massif du Sud,false,0.4661417e2,-0.7048528e2,Saint-Philémon,Québec,Canada,http://massifdusud.net/?lang=en
Mont Blanc,false,0.4610167e2,-0.7448417e2,Mont-Blanc,Québec,Canada,http://www.skimontblanc.com/
Sainte-Adèle,false,0.4595e2,-0.7413e2,Rue Sigouin,Québec,Canada,http://www.ville.sainte-adele.qc.ca
Mont Grand-Fonds,false,0.4777139e2,-0.701025e2,Rue de la Remonté,Québec,Canada,
Mount Kanasuta,false,0.4818667e2,-0.7939889e2,Rouyn-Noranda,Québec,Canada,
Mont Olympia,false,0.459142e2,-0.741239e2,Piedmont,Québec,Canada,https://www.sommets.com/en/ski-mountains/sommet-olympia/
Mont Orignal,false,0.4641194e2,-0.7058667e2,Chemin des Avalanches,Québec,Canada,http://www.montorignal.com/
Mont Saint-Sauveur,false,0.4588556e2,-0.7415111e2,Chemin Louis-Dufour,Québec,Canada,https://www.sommets.com/fr/montagne-de-ski/sommet-saint-sauveur/
Mont-Sainte-Anne,false,0.47074e2,-0.70908e2,Rue du Beau-Séjour,Québec,Canada,http://www.mont-sainte-anne.com
Mont Shefford,false,0.4536361e2,-0.7262583e2,Shefford,Québec,Canada,
Mont Ste. Marie,false,0.4594111e2,-0.7587389e2,Lac-Sainte-Marie,Québec,Canada,http://www.montstemarie.com/
Mont Sutton,false,0.4510417e2,-0.7256167e2,Sutton,Québec,Canada,https://montsutton.com/en/
Mont Tremblant Resort,false,0.4621389e2,-0.74585e2,Les Laurentides,Québec,Canada,https://www.tremblant.ca/
Mont Owl's Head,false,0.4507417e2,-0.7229806e2,Potton,Québec,Canada,http://owlshead.com/en/
Parc du Mont-Comi,false,0.4846611e2,-0.6821056e2,Saint-Donat,Québec,Canada,http://www.mont-comi.qc.ca/
Le Relais,false,0.4693694e2,-0.712975e2,Chemin du Tour-du-Lac,Québec,Canada,http://www.skirelais.com/
Ski Bromont,false,0.4530111e2,-0.7263722e2,Rue des Pentes,Québec,Canada,http://www.skibromont.com/
Ski Chantecler,false,0.4596111e2,-0.7417278e2,Ski Chantecler,Québec,Canada,http://www.skichantecler.com/en/
Mont Orford,false,0.4531222e2,-0.7224194e2,Orford,Québec,Canada,http://www.sepaq.com/pq/mor/index.dot?language_id=1
Ski Mont Rigaud,false,0.4546667e2,-0.7433611e2,Yakima (18),Québec,Canada,
Ski Mont Saint-Bruno,false,0.4555694e2,-0.7333333e2,L'Hermine - raquette,Québec,Canada,
Ski Montcalm,false,0.46041e2,-0.73831e2,Le Mur,Québec,Canada,http://www.skimontcalm.com
Ski Morin Heights,false,0.4589944e2,-0.7426833e2,Morin-Heights,Québec,Canada,https://www.sommets.com/en/ski-mountains/sommet-morin-heights/
Stoneham Mountain Resort,false,0.4703e2,-0.7138833e2,Stoneham-et-Tewkesbury,Québec,Canada,http://www.ski-stoneham.com
La Tuque,false,0.47433e2,-0.72783e2,Rue Saint-Louis,Québec,Canada,http://www.ville.latuque.qc.ca/
Vorlage,false,0.4564583e2,-0.7593444e2,La Pêche,Québec,Canada,
Blackstrap Provincial Park,false,0.517556e2,-0.106458e3,Dundurn No. 314,Saskatchewan,Canada,
Duck Mountain Ski Area,false,0.51561e2,-0.101608e3,Cote No. 271,Saskatchewan,Canada,http://skitheduck.com/blog1/
Mission Ridge Winter Park,false,0.507553e2,-0.1037817e3,Sioux Avenue South,Saskatchewan,Canada,http://www.missionridge.ca/
Wapiti Valley Regional Park,false,0.532334e2,-0.1044588e3,Nipawin No. 487,Saskatchewan,Canada,https://www.skiwapiti.com/
Watson Lake,false,0.600625e2,-0.12870694e3,Alaska Highway,Yukon,Canada,
Dawson City,false,0.6406e2,-0.13943194e3,Queen Street,Yukon,Canada,http://www.cityofdawson.ca
