name,closed,lat,lng,city,state,country,url
Pukë,false,0.4205e2,0.199e2,Rrape,Northern Albania,Albania,https://bashkiapuke.gov.al/
Soldeu,false,0.4257694e2,0.166722e1,Soldeu,Canillo,Andorra,
Dardhë,false,0.4051861e2,0.2082694e2,Dardhë,Southern Albania,Albania,
El Tarter,false,0.42583e2,0.165e1,Ransol,Canillo,Andorra,
Grau Roig,false,0.42533e2,0.1701e1,Grau Roig,,Andorra,
El Pas de la Casa,false,0.425423361e2,0.17338278e1,Pas de la Casa,,Andorra,
Vallnord,false,0.425427806e2,0.1492425e1,Xixerella,,Andorra,http://www.vallnord.com
Vallnord,false,0.425427806e2,0.1492425e1,Xixerella,,Andorra,http://www.vallnord.com
Vallnord,false,0.425427806e2,0.1492425e1,Xixerella,,Andorra,http://www.vallnord.com
Ashotsk,false,0.410375e2,0.4385806e2,Ashotsk,Shirak Province,Armenia,
Jermuk,false,0.3984167e2,0.4567222e2,Shahumyan street,Vayots Dzor Province,Armenia,http://jermuk.am/
Lernanist,false,0.404675e2,0.4479806e2,Lernanist,Kotayk Province,Armenia,
Tsaghkadzor ski resort,false,0.405294806e2,0.447043194e2,Khachik Muradyan street,Kotayk Province,Armenia,http://www.winterarmenia.com/skiinfo.php#mountain
Heiligenblut am Großglockner,false,0.4704139e2,0.1283694e2,Heiligenblut am Großglockner,Carinthia,Austria,
Arnoldstein,false,0.4655e2,0.137e2,Gailitz,Carinthia,Austria,
Koralpe,false,0.468e2,0.14983e2,Schutzhausabfahrt,Carinthia,Austria,
Katschberg Pass,false,0.4705917e2,0.1361556e2,Sankt Michael im Lungau,Salzburg,Austria,
Nassfeld,false,0.465758e2,0.132619e2,Hermagor-Pressegger See,Carinthia,Austria,http://www.nassfeld.at
Petzen,false,0.465e2,0.14783e2,Črna na Koroškem,,Slovenia,
Petzen,false,0.465e2,0.14783e2,Črna na Koroškem,,Slovenia,
Annaberg,false,0.47867e2,0.15383e2,Gemeinde Annaberg,Lower Austria,Austria,
Hochkar,false,0.47717e2,0.149e2,Gemeinde Göstling an der Ybbs,Lower Austria,Austria,http://www.hochkar.com/
Mönichkirchen,false,0.475e2,0.16033e2,Schaueregg,Styria,Austria,
Ötscher,false,0.4785583e2,0.1520278e2,Gemeinde Mitterbach am Erlaufsee,Lower Austria,Austria,
Semmering,false,0.4764694e2,0.1583e2,Gemeinde Semmering,Lower Austria,Austria,
Annaberg-Lungötz,false,0.4751667e2,0.1341667e2,Annaberg-Lungötz,Salzburg,Austria,
Annaberg-Lungötz,false,0.4751667e2,0.1341667e2,Annaberg-Lungötz,Salzburg,Austria,
Bad Gastein,false,0.471e2,0.1301667e2,Bezirk Zell am See,Salzburg,Austria,
Dorfgastein,false,0.472425e2,0.1326667e2,Ellmau,Salzburg,Austria,
Hochkönig,false,0.47420806e2,0.13063167e2,Franz Schweitzer Weg,Salzburg,Austria,http://www.hochkoenig.at
Tamsweg District,false,0.47117e2,0.13817e2,Bezirk Tamsweg,Salzburg,Austria,
Obertauern,false,0.472505e2,0.135552e2,Obertauern,Salzburg,Austria,
Rauris,false,0.4722917e2,0.1299444e2,Rauris,Salzburg,Austria,
Saalbach-Hinterglemm,false,0.473904e2,0.12637e2,Saalbach-Hinterglemm,Salzburg,Austria,
Flachau,false,0.4734278e2,0.1339222e2,Wastlgasse,Salzburg,Austria,
Zell am See,false,0.47317e2,0.128e2,Zeller Seezauber,Salzburg,Austria,
Hoher Dachstein,false,0.4747528e2,0.1360639e2,Ramsau am Dachstein,Styria,Austria,
Haus im Ennstal,false,0.474075e2,0.1376694e2,Haus im Ennstal,Styria,Austria,
Hohentauern,false,0.4743417e2,0.1448361e2,Hohentauern,Styria,Austria,
Kreischberg,false,0.470664e2,0.140417e2,Stadl-Predlitz,Styria,Austria,
Präbichl,false,0.47517e2,0.14933e2,Vordernberg,Styria,Austria,
Langenwang,false,0.475675e2,0.1561917e2,Pichlwang,Styria,Austria,
Semmering,false,0.4764694e2,0.1583e2,Gemeinde Semmering,Lower Austria,Austria,
Schladming,false,0.4739417e2,0.1368917e2,Erzherzog-Johann-Straße,Styria,Austria,
Schöckl,false,0.4720111e2,0.1547556e2,St. Radegund,Styria,Austria,
Stuhleck,false,0.47567e2,0.15783e2,Gemeinde Rettenegg,Styria,Austria,
Tauplitz,false,0.4761667e2,0.14e2,Bad Mitterndorf,Styria,Austria,
Alpbach,false,0.473985333e2,0.119439056e2,Alpbach,Bezirk Kufstein,Austria,
Axamer Lizum,false,0.4719583e2,0.1130139e2,Axams,,Austria,
Ischgl,false,0.4701306e2,0.1028806e2,Ischgl,Tyrol,Austria,
Innsbruck,false,0.4726833e2,0.1139333e2,Innsbruck,Tyrol,Austria,
Kaunertal,false,0.4703333e2,0.1075e2,Feichten,Tyrol,Austria,
Lienz,false,0.4682972e2,0.1276972e2,Patriasdorf,,Austria,
Mayrhofen,false,0.47167e2,0.11867e2,Sportplatzstraße,,Austria,
Kitzbühel,false,0.4744639e2,0.1239194e2,Gerbergasse,,Austria,
Ötztal,false,0.4713694e2,0.1092722e2,Umhausen,,Austria,
Pitztal,false,0.4709528e2,0.1082e2,Sankt Leonhard im Pitztal,,Austria,
St Anton am Arlberg,false,0.47117e2,0.10267e2,Sankt Jakob am Arlberg,Tyrol,Austria,
Sankt Jakob in Defereggen,false,0.4691667e2,0.1231667e2,Sankt Jakob in Defereggen,,Austria,
Seefeld in Tirol,false,0.4732944e2,0.1118917e2,Seefeld in Tirol,Tyrol,Austria,
St. Johann in Tirol,false,0.475225e2,0.1242556e2,Kaiserstraße,,Austria,https://www.st.johann.tirol
Stubaital,false,0.471667e2,0.113167e2,Telfes im Stubai,,Austria,
Wildschönau,false,0.4745e2,0.1205e2,Wildschönau,Bezirk Kufstein,Austria,
Gosau,false,0.4758333e2,0.1353333e2,Gosau,,Austria,
Zillertal,false,0.47333e2,0.11867e2,Hart im Zillertal,,Austria,
Gosau,false,0.4758333e2,0.1353333e2,Gosau,,Austria,
Hinterstoder,false,0.4769639e2,0.1414944e2,Hinterstoder,,Austria,
Grünau im Almtal,false,0.4785278e2,0.1395556e2,Grünau im Almtal,,Austria,
Hochficht,false,0.4873639e2,0.1392111e2,Ulrichsberg,Upper Austria,Austria,
Loser,false,0.47667e2,0.13767e2,Altaussee,Styria,Austria,
Brandnertal,false,0.4712167e2,0.976667e1,Gemeinde Bürs,Vorarlberg,Austria,
Bregenz Forest,false,0.4726556e2,0.988e1,Gemeinde Damüls,Vorarlberg,Austria,
Kleinwalsertal,false,0.4734278e2,0.101675e2,Gemeinde Mittelberg,Vorarlberg,Austria,
Silvretta Montafon,false,0.469809e2,0.99658e1,Gemeinde Sankt Gallenkirch,Vorarlberg,Austria,https://www.silvretta-montafon.at/en
Schruns,false,0.4708028e2,0.991917e1,Marktgemeinde Schruns,Vorarlberg,Austria,
Qabala,false,0.4098139e2,0.4784583e2,28 may küçəsi döngə,Sheki-Zaqatala,Azerbaijan,
Qusar,false,0.4142639e2,0.4843556e2,Mahmud Əbilov küç.,Quba - Khachmaz,Azerbaijan,
Silichy,false,0.5414833e2,0.2783472e2,Lahojsk selsaviet,Minsk Region,Belarus,http://www.silichy.by/
Raǔbičy,false,0.5405889e2,0.277375e2,Astrashitskagaradokski rural council,Minsk Region,Belarus,https://rau.by/
Baraque de Fraiture,false,0.5025111e2,0.573194e1,Vielsalm,Luxembourg,Belgium,
High Fens,false,0.5054444e2,0.607778e1,Baelen,Liège,Belgium,
Mont des Brumes,false,0.5043417e2,0.590611e1,Moulin du Ruy,Liège,Belgium,http://www.montdesbrumes.be/
Ovifat,false,0.5046646e2,0.6107e1,Robertville,Liège,Belgium,
Bjelašnica,false,0.43704e2,0.18257e2,Lukavac,Federation of Bosnia and Herzegovina,Bosnia and Herzegovina,
Igman,false,0.4374e2,0.1815e2,Mrtvanje,Federation of Bosnia and Herzegovina,Bosnia and Herzegovina,
Kupres,false,0.4399056e2,0.1727944e2,Cesta sv. Ivana Pavla II.,Federation of Bosnia and Herzegovina,Bosnia and Herzegovina,
Jahorina Ski Resort,false,0.4373667e2,0.1856639e2,Tower,Republika Srpska,Bosnia and Herzegovina,https://www.oc-jahorina.com/en/
Risovac,false,0.43677594e2,0.17577006e2,Ponor,Federation of Bosnia and Herzegovina,Bosnia and Herzegovina,
Rujište,false,0.4343528e2,0.1797278e2,Ruište,Federation of Bosnia and Herzegovina,Bosnia and Herzegovina,
Vlašić,false,0.44283333e2,0.17666667e2,Orlice,Federation of Bosnia and Herzegovina,Bosnia and Herzegovina,
Bansko,false,0.41833e2,0.235e2,Tsar Simeon,Bansko,Bulgaria,http://www.bansko.bg/
Berkovitsa,false,0.43233e2,0.23117e2,Пейо Яворов,Berkovitsa,Bulgaria,
Bodrost,false,0.4204528e2,0.2333778e2,Blagoevgrad,Blagoevgrad,Bulgaria,
Borovets,false,0.4226444e2,0.2360694e2,Borovets,Samokov,Bulgaria,
Chepelare,false,0.4172583e2,0.2468444e2,86,Chepelare,Bulgaria,
Dobrinishte,false,0.4182111e2,0.2356222e2,Освобождение,Bansko,Bulgaria,
Govedartsi,false,0.4226278e2,0.2347806e2,Govedartsi,Samokov,Bulgaria,
Kom Peak,false,0.43167e2,0.2305e2,Sofia,Godech,Bulgaria,
Malyovitsa,false,0.421736361e2,0.23363083e2,х. Мальовица - Мальовишки езера,Samokov,Bulgaria,
Osogovo,false,0.4215833e2,0.2251667e2,Sasa,Eastern Region,North Macedonia,
Pamporovo,false,0.4165e2,0.24683e2,Stoikite,Smolian,Bulgaria,http://www.pamporovo.me
Panichishte,false,0.4226139e2,0.23295e2,Panichishte,Sapareva Bania,Bulgaria,
Parshevitsa,false,0.4314306e2,0.2347611e2,Vratsa,Vratsa,Bulgaria,
Semkovo,false,0.4204389e2,0.2353389e2,Goljam Mechi Vrah-Kanarsko ez.,Belitsa,Bulgaria,
Tsigov Chark,false,0.41955e2,0.2415056e2,Каталина,Batak,Bulgaria,
Uzana,false,0.4275833e2,0.2523722e2,Gabrovo,Gabrovo,Bulgaria,http://www.uzana-tourism.com/
Vitosha,false,0.42567e2,0.23283e2,Pancharevo,Sofia City,Bulgaria,
Medvednica,false,0.45917e2,0.15967e2,Općina Stubičke Toplice,,Croatia,
Platak,false,0.45417e2,0.14567e2,"Šetnica ""Sleme""",Općina Čavle,Croatia,
Mount Olympus,false,0.3493639e2,0.3286333e2,Troodos,Cyprus,Cyprus,
Harrachov,false,0.5077306e2,0.1542889e2,01021,Northeast,Czechia,https://www.harrachov.cz/
Pec pod Sněžkou,false,0.5069361e2,0.1573333e2,Pec pod Sněžkou,Northeast,Czechia,https://www.pecpodsnezkou.cz/
Špindlerův Mlýn,false,0.5072528e2,0.1560833e2,Špindlerův Mlýn,Northeast,Czechia,https://www.spindleruvmlyn.org/
Gjern,false,0.5622417e2,0.974056e1,Gjern,Central Denmark Region,Denmark,
Otepää,false,0.5805722e2,0.2649833e2,Lipuväljak,Otepää vald,Estonia,
Võru,false,0.5784861111e2,0.2699277778e2,Jüri,Võru linn,Estonia,http://www.voru.ee
Kiviõli,false,0.5935e2,0.26967e2,Niine,Lüganuse vald,Estonia,
Viimsi,false,0.5949972e2,0.2483361e2,Viimsi,Viimsi vald,Estonia,
Iso-Syöte,false,0.6562556e2,0.2760444e2,Etelän tietäjät,Mainland Finland,Finland,
Hervanta,false,0.614481e2,0.238521e2,Tampere,Mainland Finland,Finland,
Koli National Park,false,0.630575e2,0.2988722e2,Rantatie (Koli),Mainland Finland,Finland,https://www.koli.fi/en/
Levi,false,0.67805e2,0.24802e2,Hissitie,Mainland Finland,Finland,http://www.levi.fi/en/home.html
Rukatunturi,false,0.6619611e2,0.291125e2,Ruka,Mainland Finland,Finland,
Pallas-Yllästunturi National Park,false,0.6815889e2,0.2404028e2,Enontekiö,Mainland Finland,Finland,https://www.nationalparks.fi/en/pallas-yllastunturinp
Suomu,false,0.665598278e2,0.280223806e2,Kotakuja,Mainland Finland,Finland,http://www.suomutunturi.fi
Tahkovuori,false,0.632899e2,0.280405e2,Kuopio,Mainland Finland,Finland,
Vuokatti,false,0.641458e2,0.282717e2,Pohjavaarantie,Mainland Finland,Finland,
Vihti,false,0.60417e2,0.24317e2,Liukkaankuja,Mainland Finland,Finland,
Ylläs,false,0.6756444e2,0.2422444e2,Ylläksen historiapolku,Mainland Finland,Finland,http://www.yllas.fi
Pra-Loup,false,0.44369e2,0.6601e1,Uvernet-Fours,Provence-Alpes-Côte d'Azur,France,http://www.praloup.com/
Abriès-Ristolas,false,0.4479611e2,0.692778e1,Abriès-Ristolas,Provence-Alpes-Côte d'Azur,France,
Ancelle,false,0.446242e2,0.62072e1,Ancelle,Provence-Alpes-Côte d'Azur,France,http://www.ancelle.fr/
Arvieux,false,0.447672e2,0.67397e1,Arvieux,Provence-Alpes-Côte d'Azur,France,
Ceillac,false,0.446681e2,0.67775e1,Ceillac,Provence-Alpes-Côte d'Azur,France,
Château-Ville-Vieille,false,0.447575e2,0.67917e1,Château-Ville-Vieille,Provence-Alpes-Côte d'Azur,France,
Saint-Michel-de-Chaillol,false,0.446831e2,0.61681e1,Chaillol 1600,Provence-Alpes-Côte d'Azur,France,
Crévoux,false,0.445489e2,0.66081e1,Crévoux,Provence-Alpes-Côte d'Azur,France,
Dévoluy,false,0.446933e2,0.59419e1,Le Dévoluy,Provence-Alpes-Côte d'Azur,France,
La Grave,false,0.450469e2,0.63067e1,La Grave,Provence-Alpes-Côte d'Azur,France,
Montgenèvre,false,0.449316e2,0.67219e1,Montgenèvre,Provence-Alpes-Côte d'Azur,France,
Orcières-Merlette,false,0.44697e2,0.6322e1,Orcières,Provence-Alpes-Côte d'Azur,France,http://orcieres.com
Laye,false,0.446619e2,0.6085e1,Laye,Provence-Alpes-Côte d'Azur,France,
Les Orres,false,0.445147e2,0.65514e1,Les Orres,Provence-Alpes-Côte d'Azur,France,
Puy-Saint-Vincent,false,0.448308e2,0.64878e1,Puy-Saint-Vincent,Provence-Alpes-Côte d'Azur,France,
Réallon,false,0.445964e2,0.63656e1,Réallon,Provence-Alpes-Côte d'Azur,France,
Risoul,false,0.446497e2,0.66408e1,Risoul,Provence-Alpes-Côte d'Azur,France,
Saint-Léger-les-Mélèzes,false,0.446444e2,0.61989e1,Saint-Léger-les-Mélèzes,Provence-Alpes-Côte d'Azur,France,
Saint-Véran,false,0.447008e2,0.68692e1,Saint-Véran,Provence-Alpes-Côte d'Azur,France,
Serre Chevalier,false,0.4494444e2,0.656667e1,La Salle-les-Alpes,Provence-Alpes-Côte d'Azur,France,http://www.serre-chevalier.com
Vars,false,0.445958e2,0.66906e1,Vars,Provence-Alpes-Côte d'Azur,France,
Auron,false,0.44225e2,0.693083e1,Saint-Étienne-de-Tinée,Provence-Alpes-Côte d'Azur,France,http://www.auron.com
Beuil,false,0.440958e2,0.69883e1,Beuil,Provence-Alpes-Côte d'Azur,France,
Isola 2000,false,0.4418667e2,0.715833e1,Isola,Provence-Alpes-Côte d'Azur,France,http://www.isola2000.com
Valdeblore,false,0.440719e2,0.71719e1,La Roche,Provence-Alpes-Côte d'Azur,France,
Col de Rousset,false,0.44840611e2,0.54060028e1,Saint-Agnan-en-Vercors,Auvergne-Rhône-Alpes,France,
Saint-Martin-en-Vercors,false,0.45023e2,0.5443e1,Saint-Martin-en-Vercors,Auvergne-Rhône-Alpes,France,
Valdrôme,false,0.44505e2,0.5573e1,Valdrôme,Auvergne-Rhône-Alpes,France,
La Jarjatte,false,0.44675367e2,0.5756149e1,Lus-la-Croix-Haute,Auvergne-Rhône-Alpes,France,
Alpe d'Huez,false,0.4506028e2,0.607139e1,Auris,Auvergne-Rhône-Alpes,France,http://www.alpedhuez.com/
Autrans,false,0.45176e2,0.5542e1,Autrans-Méaudre en Vercors,Auvergne-Rhône-Alpes,France,
Chamrousse,false,0.451092e2,0.58744e1,Chamrousse,Auvergne-Rhône-Alpes,France,http://winter.chamrousse.com
Le Bourg-d'Oisans,false,0.450558e2,0.60303e1,Le Bourg-d'Oisans,Auvergne-Rhône-Alpes,France,
Chichilianne,false,0.448122e2,0.55731e1,Chichilianne,Auvergne-Rhône-Alpes,France,
Col de Porte,false,0.4529e2,0.576694e1,Sarcenas,Auvergne-Rhône-Alpes,France,
Les Deux Alpes,false,0.4500722e2,0.612167e1,Les Deux Alpes,Auvergne-Rhône-Alpes,France,http://www.les2alpes.com
Col d'Ornon,false,0.4500889e2,0.59675e1,Chantepérier,Auvergne-Rhône-Alpes,France,
La Grave,false,0.450469e2,0.63067e1,La Grave,Provence-Alpes-Côte d'Azur,France,
Lans-en-Vercors,false,0.451292e2,0.55892e1,Lans-en-Vercors,Auvergne-Rhône-Alpes,France,
Gresse-en-Vercors,false,0.449031e2,0.55675e1,Gresse-en-Vercors,Auvergne-Rhône-Alpes,France,
La Motte-d'Aveillans,false,0.449619e2,0.57458e1,La Motte-d'Aveillans,Auvergne-Rhône-Alpes,France,
Méaudre,false,0.451278e2,0.55278e1,Autrans-Méaudre en Vercors,Auvergne-Rhône-Alpes,France,
Saint-Hilaire,false,0.453103e2,0.58878e1,Saint-Hilaire,Auvergne-Rhône-Alpes,France,
Saint-Nizier-du-Moucherotte,false,0.451719e2,0.56311e1,Saint-Nizier-du-Moucherotte,Auvergne-Rhône-Alpes,France,
Saint-Pierre-de-Chartreuse,false,0.453433e2,0.58161e1,Saint-Pierre-de-Chartreuse,Auvergne-Rhône-Alpes,France,
Les Sept Laux,false,0.452557e2,0.59931e1,Les Adrets,Auvergne-Rhône-Alpes,France,http://www.les7laux.com
Tréminis,false,0.447483e2,0.57697e1,Tréminis,Auvergne-Rhône-Alpes,France,
Vaujany,false,0.451586e2,0.60775e1,Vaujany,Auvergne-Rhône-Alpes,France,
Villard-de-Lans,false,0.450708e2,0.55514e1,Villard-de-Lans,Auvergne-Rhône-Alpes,France,
Les Arcs,false,0.4557167e2,0.680778e1,Arpette,Auvergne-Rhône-Alpes,France,https://www.lesarcs.com/
Villard-Reculas,false,0.450931e2,0.60325e1,Villard-Reculas,Auvergne-Rhône-Alpes,France,
Aussois,false,0.452272e2,0.67423e1,Aussois,Auvergne-Rhône-Alpes,France,
Bessans,false,0.4532e2,0.7e1,Bessans,Auvergne-Rhône-Alpes,France,
Bonneval-sur-Arc,false,0.453722e2,0.70472e1,Bonneval-sur-Arc,Auvergne-Rhône-Alpes,France,http://www.mairie-de-bonnevalsurarc.fr/
Bramans,false,0.452244e2,0.67764e1,Val-Cenis,Auvergne-Rhône-Alpes,France,
Brides-les-Bains,false,0.454533e2,0.65675e1,Brides-les-Bains,Auvergne-Rhône-Alpes,France,
Champagny-en-Vanoise,false,0.454553e2,0.66933e1,Champagny-en-Vanoise,Auvergne-Rhône-Alpes,France,
Le Corbier,false,0.452394389e2,0.627139e1,Villarembert,Auvergne-Rhône-Alpes,France,
Courchevel,false,0.45415e2,0.663389e1,Courchevel,Auvergne-Rhône-Alpes,France,https://www.courchevel.com
Saint-Pierre-d'Entremont,false,0.454161e2,0.58547e1,Saint-Pierre-d'Entremont,Auvergne-Rhône-Alpes,France,
Crest-Voland,false,0.457958e2,0.65064e1,Crest-Voland,Auvergne-Rhône-Alpes,France,
Flumet,false,0.458203e2,0.65175e1,Flumet,Auvergne-Rhône-Alpes,France,
La Giettaz,false,0.458631e2,0.64958e1,La Giettaz,Auvergne-Rhône-Alpes,France,
Granier,false,0.455733e2,0.66514e1,Aime-la-Plagne,Auvergne-Rhône-Alpes,France,
Ugine,false,0.457533e2,0.64206e1,Rue Chaffale,Auvergne-Rhône-Alpes,France,
Les Karellis,false,0.45228783e2,0.6403313e1,Montricher-Albanne,Auvergne-Rhône-Alpes,France,http://www.karellis.com/en/
Les Menuires,false,0.4532361e2,0.65375e1,Saint-Martin-de-Belleville,Auvergne-Rhône-Alpes,France,http://lesmenuires.com/
Méribel,false,0.453967306e2,0.65662694e1,Les Allues,Auvergne-Rhône-Alpes,France,http://french-alps.meribel.net/
La Norma,false,0.452022e2,0.669889e1,La Norma,Auvergne-Rhône-Alpes,France,http://www.la-norma.fr/en/
Notre-Dame-de-Bellecombe,false,0.458103e2,0.65197e1,Notre-Dame-de-Bellecombe,Auvergne-Rhône-Alpes,France,
Orelle,false,0.4521e2,0.65378e1,Orelle,Auvergne-Rhône-Alpes,France,
Les Arcs,false,0.4557167e2,0.680778e1,Arpette,Auvergne-Rhône-Alpes,France,https://www.lesarcs.com/
La Plagne,false,0.455064e2,0.667722e1,La Plagne-Tarentaise,Auvergne-Rhône-Alpes,France,https://www.la-plagne.com/
Pralognan-la-Vanoise,false,0.453825e2,0.67222e1,Pralognan-la-Vanoise,Auvergne-Rhône-Alpes,France,
Saint-Colomban-des-Villards,false,0.45295e2,0.62272e1,Saint-Colomban-des-Villards,Auvergne-Rhône-Alpes,France,
La Rosière,false,0.4562722e2,0.684917e1,Montvalezan,Auvergne-Rhône-Alpes,France,http://www.larosiere.net
Saint-Jean-d'Arves,false,0.452081e2,0.62739e1,Saint-Jean-d'Arves,Auvergne-Rhône-Alpes,France,
Saint-François-Longchamp,false,0.454106e2,0.63492e1,Saint-François-Longchamp,Auvergne-Rhône-Alpes,France,
Saint-Martin-de-Belleville,false,0.453811e2,0.65053e1,Saint-Martin-de-Belleville,Auvergne-Rhône-Alpes,France,
Saint-Sorlin-d'Arves,false,0.452205e2,0.62308e1,Saint-Sorlin-d'Arves,Auvergne-Rhône-Alpes,France,
Sainte-Foy-Tarentaise,false,0.4559e2,0.688e1,Villaroger,Auvergne-Rhône-Alpes,France,http://www.saintefoy-tarentaise.com/english/winter/ski/
Les Saisies,false,0.4575722e2,0.653917e1,Hauteluce,Auvergne-Rhône-Alpes,France,
Sollières-Sardières,false,0.45265e2,0.68092e1,Val-Cenis,Auvergne-Rhône-Alpes,France,
La Tania,false,0.4543167e2,0.659528e1,Courchevel,Auvergne-Rhône-Alpes,France,
Termignon,false,0.452783e2,0.68178e1,Termignon,Auvergne-Rhône-Alpes,France,
Tignes,false,0.454683e2,0.69056e1,Tignes,Auvergne-Rhône-Alpes,France,
La Toussuire,false,0.4524722222e2,0.6303055556e1,Fontcouverte-la-Toussuire,Auvergne-Rhône-Alpes,France,http://la-toussuire.com/en/
Val Cenis Vanoise,false,0.45283e2,0.69e1,Val-Cenis,Auvergne-Rhône-Alpes,France,http://www.haute-maurienne-vanoise.com/
Val-d'Isère,false,0.454506e2,0.69781e1,La Daille,Auvergne-Rhône-Alpes,France,
Val Thorens,false,0.4529806e2,0.658e1,Saint-Martin-de-Belleville,Auvergne-Rhône-Alpes,France,http://www.valthorens.com
Valfréjus,false,0.4517399e2,0.66534233e1,Modane,Auvergne-Rhône-Alpes,France,http://www.valfrejus.com/en/
Valloire,false,0.451658e2,0.64292e1,Valloire,Auvergne-Rhône-Alpes,France,http://www.valloire.net/fr/hiver/
Valmorel,false,0.454341e2,0.64421e1,,Auvergne-Rhône-Alpes,France,http://www.valmorel.com/en/
Villaroger,false,0.455919e2,0.6875e1,Villaroger,Auvergne-Rhône-Alpes,France,
Argentière,false,0.4598e2,0.693e1,Argentière,Auvergne-Rhône-Alpes,France,
Bellevaux,false,0.462575e2,0.65319e1,Bellevaux,Auvergne-Rhône-Alpes,France,
Avoriaz,false,0.4619083e2,0.6775e1,Avoriaz,Auvergne-Rhône-Alpes,France,http://www.avoriaz.com
Bernex,false,0.463608e2,0.66758e1,Bernex,Auvergne-Rhône-Alpes,France,
Massif des Brasses,false,0.46168e2,0.6449e1,Saint-Jeoire,Auvergne-Rhône-Alpes,France,
Arâches-la-Frasse,false,0.460442e2,0.66322e1,La Frasse,Auvergne-Rhône-Alpes,France,
Châtel,false,0.462675e2,0.68417e1,Châtel,Auvergne-Rhône-Alpes,France,
La Chapelle-d'Abondance,false,0.462961e2,0.67881e1,La Chapelle-d'Abondance,Auvergne-Rhône-Alpes,France,
La Clusaz,false,0.45905e2,0.64239e1,La Clusaz,Auvergne-Rhône-Alpes,France,
Combloux,false,0.458964e2,0.66417e1,Combloux,Auvergne-Rhône-Alpes,France,
Les Contamines-Montjoie,false,0.458225e2,0.673e1,Les Contamines-Montjoie,Auvergne-Rhône-Alpes,France,
Flaine,false,0.4600417e2,0.669583e1,Magland,Auvergne-Rhône-Alpes,France,http://www.grand-massif.com/
Cordon,false,0.459239e2,0.66128e1,Cordon,Auvergne-Rhône-Alpes,France,
Les Gets,false,0.461606e2,0.66708e1,Les Gets,Auvergne-Rhône-Alpes,France,
Le Grand-Bornand,false,0.459425e2,0.64258e1,Le Grand-Bornand,Auvergne-Rhône-Alpes,France,
Manigod,false,0.458617e2,0.63706e1,Manigod,Auvergne-Rhône-Alpes,France,
Les Houches,false,0.458908e2,0.67992e1,Les Houches,Auvergne-Rhône-Alpes,France,https://www.leshouches.fr
Megève,false,0.458578e2,0.66181e1,Megève,Auvergne-Rhône-Alpes,France,
Montmin,false,0.458033e2,0.6265e1,Talloires-Montmin,Auvergne-Rhône-Alpes,France,
Mont-Saxonnex,false,0.460547e2,0.6485e1,Mont-Saxonnex,Auvergne-Rhône-Alpes,France,
Morillon,false,0.460847e2,0.66761e1,Morillon,Auvergne-Rhône-Alpes,France,
Morzine,false,0.461789e2,0.67089e1,Morzine,Auvergne-Rhône-Alpes,France,https://www.mairie-morzine-avoriaz.com
Orange,false,0.460275e2,0.632528e1,Saint-Sixt,Auvergne-Rhône-Alpes,France,http://www.station-orange.com/
Praz de Lys-Sommand,false,0.46146956e2,0.6590595e1,Taninges,Auvergne-Rhône-Alpes,France,http://www.prazdelys-sommand.com
Passy,false,0.459244e2,0.66872e1,Route du Plateau d'Assy,Auvergne-Rhône-Alpes,France,http://www.ville-passy-mont-blanc.fr/
Praz-sur-Arly,false,0.458381e2,0.65708e1,Praz-sur-Arly,Auvergne-Rhône-Alpes,France,
Le Reposoir,false,0.460119e2,0.65358e1,Le Reposoir,Auvergne-Rhône-Alpes,France,http://www.lereposoir.fr
Saint-Gervais-les-Bains,false,0.458933e2,0.67139e1,Saint-Gervais-les-Bains,Auvergne-Rhône-Alpes,France,
Saint-Jean-d'Aulps,false,0.46235e2,0.66564e1,Saint-Jean-d'Aulps,Auvergne-Rhône-Alpes,France,
Saint-Jean-de-Sixt,false,0.459239e2,0.64106e1,Saint-Jean-de-Sixt,Auvergne-Rhône-Alpes,France,
Saint-Gervais-les-Bains,false,0.458933e2,0.67139e1,Saint-Gervais-les-Bains,Auvergne-Rhône-Alpes,France,
Samoëns,false,0.460847e2,0.67281e1,Samoëns,Auvergne-Rhône-Alpes,France,https://www.mairiedesamoens.fr
Seythenex,false,0.457267e2,0.63003e1,Faverges-Seythenex,Auvergne-Rhône-Alpes,France,
Sixt-Fer-à-Cheval,false,0.460558e2,0.67764e1,Sixt-Fer-à-Cheval,Auvergne-Rhône-Alpes,France,http://www.sixtferacheval.com
Thollon-les-Mémises,false,0.463889e2,0.66997e1,Thollon-les-Mémises,Auvergne-Rhône-Alpes,France,
Vallorcine,false,0.460353e2,0.69339e1,Vallorcine,Auvergne-Rhône-Alpes,France,
Chalet Reynard,false,0.441525e2,0.531917e1,Bédoin,Provence-Alpes-Côte d'Azur,France,
Mont Ventoux,false,0.4417444e2,0.527889e1,Beaumont-du-Ventoux,Provence-Alpes-Côte d'Azur,France,
Aravis Range,false,0.4595583e2,0.655556e1,Le Reposoir,Auvergne-Rhône-Alpes,France,
Tignes – Val d'Isère,false,0.45619386e2,0.6770892e1,Place de la Gare,Auvergne-Rhône-Alpes,France,http://www.espacekilly.com/
Espace Diamant,false,0.4579444e2,0.655417e1,Notre-Dame-de-Bellecombe,Auvergne-Rhône-Alpes,France,http://www.lessaisies.org
Combloux,false,0.458964e2,0.66417e1,Combloux,Auvergne-Rhône-Alpes,France,
Saint-François-Longchamp,false,0.454106e2,0.63492e1,Saint-François-Longchamp,Auvergne-Rhône-Alpes,France,
Risoul,false,0.446497e2,0.66408e1,Risoul,Provence-Alpes-Côte d'Azur,France,
Alpe d'Huez,false,0.4506028e2,0.607139e1,Auris,Auvergne-Rhône-Alpes,France,http://www.alpedhuez.com/
Grand Massif,false,0.46007e2,0.668312e1,Flaine,Auvergne-Rhône-Alpes,France,http://www.grand-massif.com
Paradiski,false,0.45545865e2,0.6759338e1,Peisey-Nancroix,Auvergne-Rhône-Alpes,France,
Villard-Reculas,false,0.450931e2,0.60325e1,Villard-Reculas,Auvergne-Rhône-Alpes,France,
Portes du Soleil,false,0.46193676e2,0.6773329e1,Avoriaz,Auvergne-Rhône-Alpes,France,http://www.portesdusoleil.com
Les Sybelles,false,0.4525472e2,0.625861e1,Fontcouverte-la-Toussuire,Auvergne-Rhône-Alpes,France,http://www.les-sybelles.com
Saint-Jean-d'Arves,false,0.452081e2,0.62739e1,Saint-Jean-d'Arves,Auvergne-Rhône-Alpes,France,
Les Trois Vallées,false,0.4535e2,0.66e1,Les Allues,Auvergne-Rhône-Alpes,France,http://www.les3vallees.com
Ghisoni,false,0.421042e2,0.92117e1,Ghisoni,Corsica,France,
Bellefontaine,false,0.465578e2,0.60661e1,Bellefontaine,Bourgogne-Franche-Comté,France,
Cerniébaud,false,0.467333e2,0.61044e1,Cerniébaud,Bourgogne-Franche-Comté,France,
Chapelle-des-Bois,false,0.465992e2,0.61153e1,Chapelle-des-Bois,Bourgogne-Franche-Comté,France,
Charquemont,false,0.47215e2,0.68225e1,Charquemont,Bourgogne-Franche-Comté,France,
Chaux-Neuve,false,0.466789e2,0.61361e1,Chaux-Neuve,Bourgogne-Franche-Comté,France,
Foncine-le-Haut,false,0.4666e2,0.60742e1,Foncine-le-Haut,Bourgogne-Franche-Comté,France,
Les Fourgs,false,0.46835e2,0.64061e1,Les Fourgs,Bourgogne-Franche-Comté,France,
Gilley,false,0.470483e2,0.64853e1,Gilley,Bourgogne-Franche-Comté,France,
Grande-Rivière,false,0.465417e2,0.59136e1,Grande-Rivière-Château,Bourgogne-Franche-Comté,France,
Lajoux,false,0.463758e2,0.59722e1,Lajoux,Bourgogne-Franche-Comté,France,
Lamoura,false,0.463961e2,0.59675e1,Lamoura,Bourgogne-Franche-Comté,France,
Longchaumois,false,0.464614e2,0.59333e1,Longchaumois,Bourgogne-Franche-Comté,France,
Longcochon,false,0.46775e2,0.60706e1,Longcochon,Bourgogne-Franche-Comté,France,
Métabief,false,0.467742e2,0.63525e1,Métabief,Bourgogne-Franche-Comté,France,
Maîche,false,0.472519e2,0.68044e1,Maîche,Bourgogne-Franche-Comté,France,
Mignovillard,false,0.467915e2,0.61266e1,Mignovillard,Bourgogne-Franche-Comté,France,
Montbenoît,false,0.469936e2,0.64628e1,Montbenoît,Bourgogne-Franche-Comté,France,
Morbier,false,0.465375e2,0.60175e1,Morbier,Bourgogne-Franche-Comté,France,
Les Moussières,false,0.463267e2,0.58908e1,Les Moussières,Bourgogne-Franche-Comté,France,
Mouthe,false,0.467114e2,0.61944e1,Mouthe,Bourgogne-Franche-Comté,France,
La Pesse,false,0.462864e2,0.58483e1,La Pesse,Bourgogne-Franche-Comté,France,
Prémanon,false,0.464628e2,0.60322e1,Prémanon,Bourgogne-Franche-Comté,France,
Prénovel,false,0.465125e2,0.58403e1,Nanchez,Bourgogne-Franche-Comté,France,
Les Rousses,false,0.464864e2,0.60625e1,Les Rousses,Bourgogne-Franche-Comté,France,
La Bourboule,false,0.455892e2,0.274e1,La Bourboule,Auvergne-Rhône-Alpes,France,
Septmoncel,false,0.463717e2,0.59139e1,Septmoncel les Molunes,Bourgogne-Franche-Comté,France,
La Chaise-Dieu,false,0.453222e2,0.36975e1,La Chaise-Dieu,Auvergne-Rhône-Alpes,France,
Col de la Baraque des Bouviers,false,0.4475843e2,0.3521036e1,Saint-Denis-en-Margeride,Occitania,France,
Chalmazel,false,0.457053e2,0.38514e1,Chalmazel-Jeansagnière,Auvergne-Rhône-Alpes,France,http://www.loire-chalmazel.com/
Chambon-sur-Lac,false,0.455722e2,0.28975e1,Chambon-sur-Lac,Auvergne-Rhône-Alpes,France,
Chastreix,false,0.455128e2,0.27356e1,Chastreix,Auvergne-Rhône-Alpes,France,
Égliseneuve-d'Entraigues,false,0.454089e2,0.28281e1,Égliseneuve-d'Entraigues,Auvergne-Rhône-Alpes,France,
Les Estables,false,0.449053e2,0.4155e1,Les Estables,Auvergne-Rhône-Alpes,France,
Mont Pilat,false,0.45382477e2,0.4572537e1,Graix,Auvergne-Rhône-Alpes,France,
Laguiole,false,0.44685e2,0.28481e1,Laguiole,Occitania,France,
Laubert,false,0.445864e2,0.36411e1,Laubert,Occitania,France,
Le Lioran,false,0.450459e2,0.245e1,Saint-Cernin,Auvergne-Rhône-Alpes,France,http://www.lelioran.com
Mont Aigoual,false,0.4412278e2,0.3575e1,Val-d'Aigoual,Occitania,France,
Mont-Dore,false,0.455772e2,0.28097e1,Mont-Dore,Auvergne-Rhône-Alpes,France,
Murol,false,0.455739e2,0.29439e1,Murol,Auvergne-Rhône-Alpes,France,
Mont Lozère,false,0.4442611e2,0.373917e1,Mont Lozère et Goulet,Occitania,France,
Nasbinals,false,0.446631e2,0.30472e1,Nasbinals,Occitania,France,
Picherande,false,0.45465e2,0.2767e1,Picherande,Auvergne-Rhône-Alpes,France,
Saint-Urcize,false,0.446975e2,0.30047e1,Saint-Urcize,Auvergne-Rhône-Alpes,France,
Saint-Anthème,false,0.45528e2,0.3918e1,Saint-Anthème,Auvergne-Rhône-Alpes,France,
Super Besse,false,0.455107e2,0.285675e1,Besse-et-Saint-Anastaise,Auvergne-Rhône-Alpes,France,http://www.sancy.com
Haut-Folin,false,0.4699583e2,0.403722e1,Saint-Prix,Bourgogne-Franche-Comté,France,
Les Angles,false,0.430836e2,0.75e-2,Les Angles,Occitania,France,
Ax 3 Domaines,false,0.4270083e2,0.181389e1,Ax-les-Thermes,Occitania,France,http://www.ax-ski.com/
Barèges,false,0.428978e2,0.658e-1,Barèges,Occitania,France,
Beillé,false,0.480828e2,0.5136e0,Beillé,Pays de la Loire,France,
Bourg-d'Oueil,false,0.428603e2,0.4986e0,Bourg-d'Oueil,Occitania,France,
Camurac,false,0.427992e2,0.19158e1,Camurac,Occitania,France,
Cauterets,false,0.4289e2,-0.11e0,Cauterets,Occitania,France,
Étang de Lers,false,0.428075e2,0.137778e1,Le Port,Occitania,France,
Font-Romeu-Odeillo-Via,false,0.424983e2,0.20347e1,Font-Romeu-Odeillo-Via,Occitania,France,
Gavarnie-Gèdre,false,0.42789e2,0.19e-1,Gavarnie-Gèdre,Occitania,France,
Formiguères,false,0.426156e2,0.21025e1,Formiguères,Occitania,France,
Gourette,false,0.4295806e2,-0.33222e0,Gourette,Nouvelle-Aquitaine,France,
Guzet-Neige,false,0.4278722e2,0.129861e1,Ustou,Occitania,France,http://www.haut-couserans.com/fr/hiver/ski/index.htm
Hautacam,false,0.42972222e2,-0.8056e-2,Beaucens,Occitania,France,http://www.hautacam.com/
Luz Ardiden,false,0.4288556e2,-0.6139e-1,Grust,Occitania,France,http://www.luz.org/
Nistos,false,0.430181e2,0.48e0,Nistos,Occitania,France,
Peyragudes,false,0.4279e2,0.445e0,Germ,Occitania,France,http://www.n-py.com/en/peyragudes/
Porté-Puymorens,false,0.425492e2,0.18325e1,Porté-Puymorens,Occitania,France,
Puyvalador,false,0.426472e2,0.21206e1,Puyvalador,Occitania,France,
Saint-Lary-Soulan,false,0.4282e2,0.32e0,Vignec,Occitania,France,
Somport,false,0.4279361e2,-0.54583e0,Urdos,Nouvelle-Aquitaine,France,
Superbagnères,false,0.42768e2,0.577e0,Saint-Aventin,Occitania,France,http://www.luchon.com
Ballon d'Alsace,false,0.4782222e2,0.684528e1,Sewen,Grand Est,France,
Val-Louron,false,0.427903e2,0.3897e0,Adervielle-Pouchergues,Occitania,France,http://www.val-louron-ski.com/
La Bresse,false,0.480067e2,0.68767e1,La Bresse,Grand Est,France,
La Bresse,false,0.480067e2,0.68767e1,La Bresse,Grand Est,France,
Bussang,false,0.478864e2,0.68542e1,Bussang,Grand Est,France,
Col des Bagenelles,false,0.481925e2,0.711389e1,Le Bonhomme,Grand Est,France,
Mont Donon,false,0.4851389e2,0.717083e1,Wisches,Grand Est,France,
Cornimont,false,0.479639e2,0.68397e1,Cornimont,Grand Est,France,
Gérardmer,false,0.4808e2,0.688e1,Impasse des Maisons Neuves,Grand Est,France,
Grand Ballon,false,0.4790083e2,0.709806e1,Geishouse,Grand Est,France,
Girmont-Val-d'Ajol,false,0.479547e2,0.65619e1,Girmont-Val-d'Ajol,Grand Est,France,
Lac Blanc,false,0.48124444e2,0.7094444e1,Orbey,Grand Est,France,
Le Markstein,false,0.4792639e2,0.703e1,Oderen,Grand Est,France,http://www.lemarkstein.net/en/
Rochesson,false,0.480231e2,0.67864e1,Rochesson,Grand Est,France,
La Planche des Belles Filles,false,0.4777222e2,0.677778e1,Plancher-les-Mines,Bourgogne-Franche-Comté,France,http://www.stationdelaplanche.fr
Saint-Maurice-sur-Moselle,false,0.478586e2,0.68247e1,Saint-Maurice-sur-Moselle,Grand Est,France,
Le Tanet,false,0.4808333e2,0.705194e1,Stosswihr,Grand Est,France,
Col de la Schlucht,false,0.4806389e2,0.7022667e1,Le Valtin,Grand Est,France,
Le Valtin,false,0.480989e2,0.70244e1,Le Valtin,Grand Est,France,
Ventron,false,0.479411e2,0.68733e1,Ventron,Grand Est,France,
Wangenbourg-Engenthal,false,0.4863e2,0.73e1,Wangenbourg-Engenthal,Grand Est,France,
Xonrupt-Longemer,false,0.4808e2,0.693e1,Xonrupt-Longemer,Grand Est,France,https://www.xonrupt.fr/
Bakuriani,false,0.4175e2,0.43533e2,Borjomi Municipality,Samtskhe-Javakheti,Georgia,
Gudauri,false,0.4247583e2,0.4447861e2,Mtskheta-Stepantsminda-Larsi,Mtskheta-Mtianeti,Georgia,
Garmisch-Partenkirchen,false,0.475e2,0.11083e2,Brauhausstraße,Bavaria,Germany,
Mestia,false,0.4304556e2,0.4272972e2,Tamar Mepe Street,Samegrelo-Upper Svaneti,Georgia,
Oberammergau,false,0.4759667e2,0.1106444e2,Dorfstraße,Bavaria,Germany,
Oberstdorf,false,0.47417e2,0.10283e2,Im Steinach,Bavaria,Germany,https://www.markt-oberstdorf.de/
Zwiesel,false,0.49017e2,0.13233e2,Lichtenthal,Bavaria,Germany,http://www.zwiesel.de
Baiersbronn,false,0.4850583e2,0.837111e1,Altmühleweg,Baden-Württemberg,Germany,
Belchen,false,0.478225e2,0.783361e1,Schönenberg,Baden-Württemberg,Germany,
Breitnau,false,0.4793917e2,0.807917e1,Breitnau,Baden-Württemberg,Germany,http://www.breitnau.de/
Feldberg,false,0.4787861e2,0.801111e1,Feldberg,Baden-Württemberg,Germany,
Herrischried,false,0.47667e2,0.8e1,Herrischried,Baden-Württemberg,Germany,
Furtwangen im Schwarzwald,false,0.4805028e2,0.820917e1,Baumannstraße,Baden-Württemberg,Germany,
Oberried,false,0.4793194e2,0.794722e1,Oberried,Baden-Württemberg,Germany,
Hinterzarten,false,0.479e2,0.81e1,Hinterzarten,Baden-Württemberg,Germany,
Sankt Georgen im Schwarzwald,false,0.4812472e2,0.833083e1,Hauptstraße,Baden-Württemberg,Germany,
Sasbachwalden,false,0.4861833e2,0.812722e1,Sasbachwalden,Baden-Württemberg,Germany,
Schonach im Schwarzwald,false,0.481425e2,0.82025e1,Schonach im Schwarzwald,Baden-Württemberg,Germany,
Schönwald im Schwarzwald,false,0.4810472e2,0.820278e1,Schönwald im Schwarzwald,Baden-Württemberg,Germany,
Seebach,false,0.4857667e2,0.817611e1,Seebach,Baden-Württemberg,Germany,
Todtmoos,false,0.47733e2,0.8e1,Todtmoos,Baden-Württemberg,Germany,
Todtnau,false,0.47833e2,0.795e1,Oberstraße,Baden-Württemberg,Germany,http://www.todtnau.de/
Triberg im Schwarzwald,false,0.4813083e2,0.823167e1,Hauptstraße,Baden-Württemberg,Germany,
Altenau,false,0.5180278e2,0.1044556e2,Bergstraße,Lower Saxony,Germany,
Bad Sachsa,false,0.5159694e2,0.1055222e2,Pfaffenwiese,Lower Saxony,Germany,
Braunlage,false,0.5172694e2,0.1061194e2,Marktstraße,Lower Saxony,Germany,http://www.braunlage.org
Clausthal-Zellerfeld,false,0.51805e2,0.1033556e2,Graupenstraße,Lower Saxony,Germany,
Hahnenklee,false,0.5186389e2,0.1034083e2,Berghotel,Lower Saxony,Germany,
Hohegeiß,false,0.5166389e2,0.1066889e2,Hohegeiß,Lower Saxony,Germany,
Osterode am Harz,false,0.5172861e2,0.1025222e2,Aegidienstraße,Lower Saxony,Germany,
Schulenberg im Oberharz,false,0.5183611e2,0.10435e2,Schulenberg im Oberharz,Lower Saxony,Germany,
Sankt Andreasberg,false,0.5171056e2,0.1051833e2,Sankt Andreasberg,Lower Saxony,Germany,http://www.sankt-andreasberg.de/
Winterberg,false,0.512e2,0.8517e1,In der Büre,North Rhine-Westphalia,Germany,https://www.winterberg.de
Aalen,false,0.48833e2,0.101e2,Am Proviantamt,Baden-Württemberg,Germany,
Willingen,false,0.51295e2,0.860806e1,Briloner Straße,Hesse,Germany,
Albstadt,false,0.4821194e2,0.902389e1,Gartenstraße,Baden-Württemberg,Germany,
Sonnenbühl,false,0.4839028e2,0.918111e1,Sonnenbühl,Baden-Württemberg,Germany,
Römerstein,false,0.4849556e2,0.951056e1,Römerstein,Baden-Württemberg,Germany,
Westerheim,false,0.48515e2,0.962361e1,Westerheim,Baden-Württemberg,Germany,
Elatochori,false,0.4032e2,0.22267e2,Katerini Municipality,Macedonia and Thrace,Greece,
Wiesensteig,false,0.4856167e2,0.962528e1,Spitalgasse,Baden-Württemberg,Germany,
Falakro,false,0.412939e2,0.240947e2,Drama Municipal Unit,Macedonia and Thrace,Greece,
Kalavryta,false,0.38033e2,0.22117e2,Municipal Unit of Kalavryta,"Peloponnese, Western Greece and the Ionian",Greece,
Karpenisi,false,0.38917e2,0.21783e2,Municipal Unit of Karpenisi,Thessaly and Central Greece,Greece,
Mainalo,false,0.376436e2,0.222797e2,Municipal Unit of Levidi,"Peloponnese, Western Greece and the Ionian",Greece,
Olympos,false,0.39983e2,0.222e2,Kallithea,Thessaly and Central Greece,Greece,
Metsovo,false,0.3977028e2,0.2118389e2,Ioannina Regional Unit,Epirus and Western Macedonia,Greece,
Mount Parnassus,false,0.3853583e2,0.2262417e2,Municipal Unit of Tithorea,Thessaly and Central Greece,Greece,
Pertouli,false,0.39533e2,0.21467e2,Περτούλι,Thessaly and Central Greece,Greece,
Pelion,false,0.3943861e2,0.2304639e2,Municipal Unit of Zagora,Thessaly and Central Greece,Greece,
Pisoderi,false,0.4078611e2,0.2124694e2,Prespes Municipal Unit,Epirus and Western Macedonia,Greece,
Kato Vermio,false,0.4055e2,0.220267e2,Kato Vermio,Macedonia and Thrace,Greece,
Vasilitsa,false,0.400597e2,0.211998e2,Πολυνέρι,Epirus and Western Macedonia,Greece,
Vitsi,false,0.40583e2,0.213e2,Tichio,Epirus and Western Macedonia,Greece,
Bánkút,false,0.480989e2,0.204889e2,Nagyvisnyó,Great Plain and North,Hungary,
Eplény,false,0.472058e2,0.17921e2,Eplény,Central Transdanubia,Hungary,
Kékes,false,0.4787889e2,0.2001028e2,Parád,Great Plain and North,Hungary,
Mátraszentimre,false,0.4790972e2,0.1987583e2,Mátraszentimre,Great Plain and North,Hungary,http://www.matraszentimre.hu/
Hlíðarfjall,false,0.656487e2,-0.182659e2,Hörgársveit,,Iceland,
Alagna Valsesia,false,0.4585389e2,0.793722e1,Alagna Valsesia,Piedmont,Italy,http://www.comune.alagnavalsesia.vc.it/
Ala di Stura,false,0.45317e2,0.73e1,Ala di Stura,Piedmont,Italy,http://www.comunealadistura.it
Scopello,false,0.45767e2,0.81e1,Scopello,Piedmont,Italy,http://www.scopello.com
Argentera,false,0.444e2,0.6933e1,Argentera,Piedmont,Italy,
Giaveno,false,0.45033e2,0.735e1,Via Rodolfo Reguzzoni,Piedmont,Italy,http://www.giaveno.it
Balme,false,0.453e2,0.7217e1,Balme,Piedmont,Italy,http://www.comune.balme.to.it/
Veglio,false,0.45633e2,0.8117e1,Veglio,Piedmont,Italy,
Bardonecchia,false,0.45083e2,0.67e1,Bardonecchia,Piedmont,Italy,http://www.comune.bardonecchia.to.it/
Crissolo,false,0.447e2,0.7167e1,Crissolo,Piedmont,Italy,http://www.comune.crissolo.cn.it/
Entracque,false,0.4425e2,0.74e1,Entracque,Piedmont,Italy,http://www.comune.entracque.cn.it/
Frabosa Soprana,false,0.442873556e2,0.78070444e1,Mondagnola,Piedmont,Italy,
Frabosa Sottana,false,0.443e2,0.78e1,Mondagnola,Piedmont,Italy,
Garessio,false,0.442e2,0.8017e1,Garessio,Piedmont,Italy,http://www.garessio.net
Roccaforte Mondovì,false,0.44317e2,0.775e1,Roccaforte Mondovì,Piedmont,Italy,
Limone Piemonte,false,0.442e2,0.7567e1,Tetti Mecci,Piedmont,Italy,http://www.limonepiemonte.it
Ceppo Morelli,false,0.45967e2,0.8067e1,Ceppo Morelli,Piedmont,Italy,http://www.comune.ceppomorelli.vb.it/
Varzo,false,0.462e2,0.825e1,Varzo,Piedmont,Italy,http://www.comune.varzo.vb.it/
Oropa,false,0.4562806e2,0.797833e1,Biella,Piedmont,Italy,
Chiomonte,false,0.45117e2,0.6983e1,Ramats,Piedmont,Italy,http://www.comune.chiomonte.to.it/
Prali,false,0.44883e2,0.705e1,Prali,Piedmont,Italy,http://www.praly.it/
Pontechianale,false,0.44617e2,0.7033e1,Pontechianale,Piedmont,Italy,
Bagnolo Piemonte,false,0.44767e2,0.7317e1,Bagnolo Piemonte,Piedmont,Italy,http://www.comune.bagnolo.cn.it
Sampeyre,false,0.44583e2,0.7183e1,Sampeyre,Piedmont,Italy,http://www.comune.sampeyre.cn.it/
Roburent,false,0.44317e2,0.7883e1,Roburent,Piedmont,Italy,
Usseglio,false,0.45233e2,0.7217e1,Usseglio,Piedmont,Italy,http://www.comuneusseglio.to.it/
Valdieri,false,0.44283e2,0.74e1,Valdieri,Piedmont,Italy,http://www.comune.valdieri.cn.it/
Via Lattea,false,0.44967e2,0.6867e1,Sestriere,Piedmont,Italy,
Ayas,false,0.45817e2,0.7683e1,Ayas,Aosta Valley,Italy,http://www.comune.ayas.ao.it/
Chamois,false,0.45833e2,0.7617e1,Chamois,Aosta Valley,Italy,http://www.comune.chamois.ao.it/
Brusson,false,0.45767e2,0.7733e1,Brusson,Aosta Valley,Italy,http://www.comune.brusson.ao.it/
Champoluc,false,0.45833e2,0.7733e1,Ayas,Aosta Valley,Italy,
Champorcher,false,0.45617e2,0.7617e1,Champorcher,Aosta Valley,Italy,
Cogne,false,0.4560795e2,0.73556e1,Cogne,Aosta Valley,Italy,http://www.comune.cogne.ao.it
Saint-Vincent,false,0.4575e2,0.765e1,Cillian,Aosta Valley,Italy,http://www.comune.saint-vincent.ao.it/index.html
Courmayeur,false,0.45783e2,0.6967e1,Courmayeur,Aosta Valley,Italy,
Gressoney-La-Trinité,false,0.45833e2,0.7833e1,Gressoney-La-Trinité,Aosta Valley,Italy,http://www.comune.gressoneylatrinite.ao.it/
Gressoney-Saint-Jean,false,0.45783e2,0.7817e1,Gressoney-Saint-Jean,Aosta Valley,Italy,http://www.comune.gressoneystjean.ao.it/
La Magdeleine,false,0.45817e2,0.7617e1,La Magdeleine,Aosta Valley,Italy,http://www.comune.la-magdeleine.ao.it/
Pila,false,0.4571861e2,0.728833e1,Gressan,Aosta Valley,Italy,
Pointe Helbronner,false,0.4584583e2,0.693167e1,Courmayeur,Aosta Valley,Italy,
Nus,false,0.45733e2,0.7467e1,Saint-Marcel,Aosta Valley,Italy,http://www.comune.nus.ao.it/
Saint-Rhémy-en-Bosses,false,0.45833e2,0.7183e1,Saint-Rhémy-en-Bosses,Aosta Valley,Italy,http://www.comune.saintrhemyenbosses.ao.it/
La Thuile,false,0.457e2,0.695e1,La Thuile,Aosta Valley,Italy,
Torgnon,false,0.458e2,0.7567e1,Torgnon,Aosta Valley,Italy,http://www.comune.torgnon.ao.it/
Valgrisenche,false,0.4563e2,0.70645e1,Planté,Aosta Valley,Italy,http://www.comune.valgrisenche.ao.it/
Valsavarenche,false,0.4559222e2,0.720778e1,Valsavarenche,Aosta Valley,Italy,http://www.comune.valsavarenche.ao.it/
Valtournenche,false,0.45883e2,0.7617e1,Cret du Pont,Aosta Valley,Italy,
Aprica,false,0.4615e2,0.10133e2,Aprica,Lombardy,Italy,http://www.comune.aprica.so.it
Bormio,false,0.46467e2,0.10367e2,Via Cacciatori delle Alpi,Lombardy,Italy,http://www.comune.bormio.so.it/
Borno,false,0.4594611e2,0.1019889e2,Borno,Lombardy,Italy,http://www.comune.borno.bs.it
Carona,false,0.46017e2,0.9783e1,Carona,Lombardy,Italy,
Chiesa in Valmalenco,false,0.46267e2,0.985e1,Primolo,Lombardy,Italy,http://www.comune.chiesainvalmalenco.so.it
Colere,false,0.45967e2,0.10083e2,Colere,Lombardy,Italy,
Foppolo,false,0.4605e2,0.975e1,Foppolo,Lombardy,Italy,
Gerola Alta,false,0.4605972e2,0.955111e1,Gerola Alta,Lombardy,Italy,http://www.comune.gerolaalta.so.it/
Gromo,false,0.45967e2,0.9933e1,Gromo,Lombardy,Italy,
Lanzada,false,0.46267e2,0.9867e1,Lanzada,Lombardy,Italy,http://www.comune.lanzada.so.it/
Livigno,false,0.46533e2,0.10133e2,Livigno,Lombardy,Italy,http://www.comune.livigno.so.it
Valbondione,false,0.461e2,0.9783e1,Fusine,Lombardy,Italy,
Madesimo,false,0.46433e2,0.935e1,Madesimo,Lombardy,Italy,http://www.comune.madesimo.so.it/
Montecampione,false,0.4583028e2,0.1018472e2,Montecampione,Lombardy,Italy,
Moggio,false,0.45933e2,0.9483e1,Moggio,Lombardy,Italy,http://www.comune.moggio.lc.it/
Margno,false,0.46033e2,0.9383e1,Codesino,Lombardy,Italy,http://www.comune.margno.lc.it/
Barzio,false,0.4595e2,0.9467e1,Barzio,Lombardy,Italy,http://www.altopianovalsassina.it/noflash.html
Piazzatorre,false,0.46e2,0.9683e1,Mezzoldo,Lombardy,Italy,
Presolana,false,0.459562e2,0.100557e2,Castione della Presolana,Lombardy,Italy,
Ponte di Legno,false,0.4625944e2,0.1050944e2,Ponte di Legno,Lombardy,Italy,http://www.comune.ponte-di-legno.bs.it/
Monte Pora,false,0.4588417e2,0.1011083e2,Castione della Presolana,Lombardy,Italy,
Valdidentro,false,0.46483e2,0.103e2,Valdidentro,Lombardy,Italy,
Valleve,false,0.46033e2,0.975e1,Foppolo,Lombardy,Italy,
Schilpario,false,0.46017e2,0.1015e2,Schilpario,Lombardy,Italy,http://www.comune.schilpario.bg.it/
Teglio,false,0.46167e2,0.10067e2,Tresenda,Lombardy,Italy,
Temù,false,0.4624944e2,0.1046889e2,Pontagna,Lombardy,Italy,http://www.comune.temu.bs.it
Valchiavenna,false,0.4625e2,0.94e1,San Pietro,Lombardy,Italy,
Valfurva,false,0.4645e2,0.10417e2,Valfurva,Lombardy,Italy,
Baselga di Piné,false,0.46133e2,0.11233e2,Tressilla,Trentino-Alto Adige/Südtirol,Italy,http://www.comune.baselgadipine.tn.it
Valtorta,false,0.45983e2,0.9533e1,Rava,Lombardy,Italy,http://www.comune.valtorta.bg.it/
Brentonico,false,0.45817e2,0.1095e2,Fontechel,Trentino-Alto Adige/Südtirol,Italy,http://www.comune.brentonico.tn.it
Monte Bondone,false,0.4598806e2,0.1103083e2,Cavedine,Trentino-Alto Adige/Südtirol,Italy,
Brocon Pass,false,0.4611861e2,0.1168833e2,Castello Tesino,Trentino-Alto Adige/Südtirol,Italy,
Rosengarten group,false,0.46467e2,0.1165e2,Tiers - Tires,Trentino-Alto Adige/Südtirol,Italy,
Folgaria,false,0.45917e2,0.11183e2,Folgaria,Trentino-Alto Adige/Südtirol,Italy,
Dimaro,false,0.46333e2,0.10867e2,Dimaro,Trentino-Alto Adige/Südtirol,Italy,http://www.comune.dimaro.tn.it
Lavarone,false,0.45933e2,0.11267e2,Gionghi,Trentino-Alto Adige/Südtirol,Italy,http://www.comune.lavarone.tn.it
Madonna di Campiglio,false,0.4623194e2,0.1082611e2,Madonna di Campiglio,Trentino-Alto Adige/Südtirol,Italy,http://www.campiglio.com/
Molveno,false,0.4615e2,0.10967e2,Molveno,Trentino-Alto Adige/Südtirol,Italy,http://www.comune.molveno.tn.it
Paganella,false,0.4616667e2,0.1106667e2,Vertical Vecia Funivia,Trentino-Alto Adige/Südtirol,Italy,
Tonale Pass,false,0.4625806e2,0.1058083e2,Ponte di Legno,Lombardy,Italy,
Pordoi Pass,false,0.464847e2,0.118361e2,SR48,Veneto,Italy,
Rolle Pass,false,0.4629639e2,0.1178694e2,San Martino di Castrozza,Trentino-Alto Adige/Südtirol,Italy,
San Pellegrino Pass,false,0.463778e2,0.117683e2,Moena,Trentino-Alto Adige/Südtirol,Italy,
Peio,false,0.46367e2,0.10667e2,Peio Fonti,Trentino-Alto Adige/Südtirol,Italy,http://www.comune.peio.tn.it
Sella Pass,false,0.4650861e2,0.1176278e2,Sëlva - Wolkenstein - Selva di Val Gardena,Trentino-Alto Adige/Südtirol,Italy,
Pinzolo,false,0.46167e2,0.1075e2,Pinzolo,Trentino-Alto Adige/Südtirol,Italy,http://www.comune.pinzolo.tn.it
Predazzo,false,0.46317e2,0.116e2,Predazzo,Trentino-Alto Adige/Südtirol,Italy,http://www.comune.predazzo.tn.it
Presanella,false,0.4622e2,0.1066389e2,Giustino,Trentino-Alto Adige/Südtirol,Italy,
San Martino di Castrozza,false,0.46267e2,0.118e2,San Martino di Castrozza,Trentino-Alto Adige/Südtirol,Italy,
Fiemme Valley,false,0.462833e2,0.115667e2,Ziano di Fiemme,Trentino-Alto Adige/Südtirol,Italy,
Seiser Alm,false,0.4654111e2,0.116447194e2,Kastelruth - Castelrotto,Trentino-Alto Adige/Südtirol,Italy,
Fassa Valley,false,0.4645389e2,0.117e2,Mazzin - Mazin,Trentino-Alto Adige/Südtirol,Italy,
Alta Badia,false,0.46553e2,0.11874e2,Corvara in Badia - Corvara,Trentino-Alto Adige/Südtirol,Italy,
Hochpustertal,false,0.4673194e2,0.1229639e2,Innichen - San Candido,Trentino-Alto Adige/Südtirol,Italy,
Brixen,false,0.46717e2,0.1165e2,Milland - Millan,Trentino-Alto Adige/Südtirol,Italy,http://www.brixen.it
Bruneck,false,0.468e2,0.11933e2,Stegen - Stegona,Trentino-Alto Adige/Südtirol,Italy,http://www.gemeinde.bruneck.bz.it
Sand in Taufers,false,0.4692111e2,0.1195556e2,Taufers - Tures,Trentino-Alto Adige/Südtirol,Italy,http://www.gemeinde.sandintaufers.bz.it
Welschnofen,false,0.46433e2,0.1155e2,Welschnofen - Nova Levante,Trentino-Alto Adige/Südtirol,Italy,http://www.gemeinde.welschnofen.bz.it
Brenner,false,0.47e2,0.115e2,Brenner - Brennero,Trentino-Alto Adige/Südtirol,Italy,
Rittner Horn,false,0.46615e2,0.1146083e2,Barbian - Barbiano,Trentino-Alto Adige/Südtirol,Italy,
Toblach,false,0.46733e2,0.12217e2,Wahlen - Valle San Silvestro,Trentino-Alto Adige/Südtirol,Italy,http://www.gemeinde.toblach.bz.it/
Graun im Vinschgau,false,0.468e2,0.10533e2,Graun - Curon Venosta,Trentino-Alto Adige/Südtirol,Italy,http://www.gemeinde.graun.bz.it
Mals,false,0.467e2,0.1055e2,Burgeis - Burgusio,Trentino-Alto Adige/Südtirol,Italy,http://www.gemeinde.mals.bz.it
Lana,false,0.46617e2,0.1115e2,Lana,Trentino-Alto Adige/Südtirol,Italy,http://www.gemeinde-lana.bz.it
Merano,false,0.46667e2,0.11167e2,Park Hotel Mignon,Trentino-Alto Adige/Südtirol,Italy,https://www.gemeinde.meran.bz.it
Welschnofen,false,0.46433e2,0.1155e2,Welschnofen - Nova Levante,Trentino-Alto Adige/Südtirol,Italy,http://www.gemeinde.welschnofen.bz.it
Deutschnofen,false,0.46417e2,0.11433e2,Deutschnofen - Nova Ponente,Trentino-Alto Adige/Südtirol,Italy,http://www.gemeinde.deutschnofen.bz.it
Moos in Passeier,false,0.46833e2,0.11167e2,Platt - Plata,Trentino-Alto Adige/Südtirol,Italy,http://www.gemeinde.moosinpasseier.bz.it
Ratschings,false,0.46883e2,0.114e2,Thuins - Tunes,Trentino-Alto Adige/Südtirol,Italy,http://www.ratschings.eu
Kronplatz,false,0.4673806e2,0.1196e2,Olang - Valdaora,Trentino-Alto Adige/Südtirol,Italy,
St. Martin in Passeier,false,0.46783e2,0.11233e2,St. Leonhard in Passeier - San Leonardo in Passiria,Trentino-Alto Adige/Südtirol,Italy,http://www.stmp.it
Schnals,false,0.467e2,0.10917e2,Schnals - Senales,Trentino-Alto Adige/Südtirol,Italy,http://www.gemeinde.schnals.bz.it/
Mareo,false,0.467e2,0.11933e2,Marèo - Enneberg - Marebbe,Trentino-Alto Adige/Südtirol,Italy,http://www.comune.marebbe.bz.it
Stilfs,false,0.466e2,0.1055e2,Stilfs - Stelvio,Trentino-Alto Adige/Südtirol,Italy,http://www.gemeinde.stilfs.bz.it/
Ulten,false,0.4655e2,0.10867e2,Ulten - Ultimo,Trentino-Alto Adige/Südtirol,Italy,http://www.gemeinde.ulten.bz.it
Val Gardena,false,0.4656e2,0.1170472e2,Santa Cristina Gherdëina - St. Christina in Gröden - Santa Cristina Valgardena,Trentino-Alto Adige/Südtirol,Italy,
Olang,false,0.46767e2,0.12033e2,Mitterolang - Valdaora di Mezzo,Trentino-Alto Adige/Südtirol,Italy,http://www.gemeinde.olang.bz.it
Ahrntal,false,0.47e2,0.11983e2,Ahrntal - Valle Aurina,Trentino-Alto Adige/Südtirol,Italy,http://www.gemeinde-ahrntal.net
Eisacktal,false,0.4672e2,0.1167e2,Elvas,Trentino-Alto Adige/Südtirol,Italy,http://www.bzgeisacktal.it
Sterzing,false,0.46883e2,0.11433e2,Freienfeld - Campo di Trens,Trentino-Alto Adige/Südtirol,Italy,http://www.sterzing.net
Alleghe,false,0.464073472e2,0.120253222e2,Masarè,Veneto,Italy,
Chies d'Alpago,false,0.46167e2,0.124e2,Chies d'Alpago,Veneto,Italy,http://www.comune.chiesdalpago.bl.it/
Auronzo di Cadore,false,0.4655e2,0.12433e2,Via Giosuè Carducci,Veneto,Italy,http://www.comune.auronzo.bl.it/
Bosco Chiesanuova,false,0.45617e2,0.11033e2,Corbiolo,Veneto,Italy,http://www.comune.boscochiesanuova.vr.it/
Monte Civetta,false,0.4638e2,0.1205333e2,Via Normale / Via Ferrata a Rif. Torrani,Veneto,Italy,
Comelico Superiore,false,0.46583e2,0.12517e2,San Nicolò di Comelico,Veneto,Italy,http://www.comelicosuperiore.info
Cortina d'Ampezzo,false,0.4654028e2,0.1213611e2,Via Antonio Cantore,Veneto,Italy,https://web.archive.org/web/20120410054416/http://www.dolomiti.org/dengl/Cortina/cinfo/index.html
Falcade,false,0.46367e2,0.11867e2,Falcade,Veneto,Italy,http://www.comune.falcade.bl.it
Livinallongo del Col di Lana,false,0.46483e2,0.1195e2,Livinallongo del Col di Lana,Veneto,Italy,
Malcesine,false,0.45767e2,0.10817e2,Malcesine,Veneto,Italy,http://www.comunemalcesine.it/
Marmolada,false,0.4643472e2,0.1185083e2,Capanna Punta Penia,Trentino-Alto Adige/Südtirol,Italy,
Pedavena,false,0.46033e2,0.11883e2,Facen,Veneto,Italy,http://www.feltrino.bl.it/pedavena
Monte Grappa,false,0.4587333e2,0.1179917e2,Via Eroica,Veneto,Italy,
Belluno,false,0.4614028e2,0.1221667e2,Via Carrera,Veneto,Italy,http://www.comune.belluno.it/
Erbezzo,false,0.45633e2,0.11033e2,Bosco Chiesanuova,Veneto,Italy,http://www.baldolessinia.it/erbezzo/
San Pellegrino Pass,false,0.463778e2,0.117683e2,Moena,Trentino-Alto Adige/Südtirol,Italy,
Passo Fedaia,false,0.464535e2,0.11889e2,Rocca Pietore,Veneto,Italy,
Sappada,false,0.46567e2,0.12683e2,Sappada - Plodn,Friuli-Venezia Giulia,Italy,http://www.comune.sappada.ud.it
Recoaro Terme,false,0.457e2,0.11233e2,Recoaro Terme,Veneto,Italy,http://www.comune.recoaroterme.vi.it
Selva di Cadore,false,0.4645e2,0.12033e2,Selva di Cadore,Veneto,Italy,
Tonezza del Cimone,false,0.4585e2,0.1135e2,Tonezza del Cimone,Veneto,Italy,http://www.comune.tonezzadelcimone.vi.it/
Zoldo Alto,false,0.4637528e2,0.1212639e2,Fusine,Veneto,Italy,http://www.comune.zoldoalto.bl.it
Pontebba,false,0.465e2,0.13317e2,Pontebba,Friuli-Venezia Giulia,Italy,http://www.comune.pontebba.ud.it/sito/index.htm
Forni di Sopra,false,0.46417e2,0.12583e2,Forni di Sopra,Friuli-Venezia Giulia,Italy,http://www.fornidisopra.org
Piancavallo,false,0.4608861e2,0.1259556e2,Marsure,Friuli-Venezia Giulia,Italy,
Sella Nevea,false,0.4639056e2,0.1347556e2,Chiusaforte,Friuli-Venezia Giulia,Italy,
Tarvisio,false,0.46505e2,0.1357833e2,Piazza Unità,Friuli-Venezia Giulia,Italy,http://www.comuneditarvisio.com
Monte Zoncolan,false,0.465e2,0.1291667e2,Ovaro,Friuli-Venezia Giulia,Italy,
Ventasso,false,0.44367e2,0.10317e2,Busana,Emilia-Romagna,Italy,http://www.commune.ventasso.re.it
Monte Cimone,false,0.4419389e2,0.1070139e2,Fiumalbo,Emilia-Romagna,Italy,
Lizzano in Belvedere,false,0.44167e2,0.109e2,Villaggio Europa,Emilia-Romagna,Italy,http://www.comune.lizzano.bo.it/
Abetone,false,0.4416278e2,0.1066528e2,Montalecchio,Emilia-Romagna,Italy,http://www.comune.abetone.pt.it/
Cutigliano,false,0.441e2,0.1075e2,Cutigliano,Tuscany,Italy,http://www.comune.cutigliano.pt.it/
Monte Amiata,false,0.429e2,0.11633e2,Strada Provinciale 81 Vetta dell'Amiata,Tuscany,Italy,
Zeri,false,0.4435e2,0.9767e1,Coloretta,Tuscany,Italy,http://www.comune.zeri.ms.it/
Frontone,false,0.43517e2,0.12733e2,Frontone,Marche,Italy,
Sarnano,false,0.43033e2,0.133e2,Sarnano,Marche,Italy,http://www.comune.sarnano.mc.it/
Guarcino,false,0.418e2,0.13317e2,Guarcino,Lazio,Italy,http://www.comune.guarcino.fr.it/
Ussita,false,0.4295e2,0.13133e2,Ussita,Marche,Italy,http://www.ussita.sinp.net
Subiaco,false,0.41933e2,0.131e2,Subiaco,Lazio,Italy,http://www.comune.subiaco.rm.it
Filettino,false,0.41883e2,0.13333e2,Valle Granara,Lazio,Italy,http://www.comunefilettino.it/
Monte Terminillo,false,0.42483e2,0.13e2,Leonessa,Lazio,Italy,
Campo di Giove,false,0.4201111e2,0.1404028e2,Campo di Giove,Abruzzo,Italy,http://www.comunecampodigiove.it
Campo Felice,false,0.4221583e2,0.1344806e2,Rocca di Cambio,Abruzzo,Italy,
Campo Imperatore,false,0.4244194e2,0.1358778e2,L'Aquila,Abruzzo,Italy,
Cappadocia,false,0.420075e2,0.1328083e2,Cappadocia,Abruzzo,Italy,http://www.cappadocia.terremarsicane.it
Ovindoli,false,0.4213806e2,0.1351694e2,Ovindoli,Abruzzo,Italy,http://www.comunediovindoli.it/
Pescasseroli,false,0.418e2,0.13783e2,L'Aquila,Abruzzo,Italy,http://www.pescasseroli.biz/ita/Index.asp
Pietracamela,false,0.42533e2,0.1355e2,Pietracamela,Abruzzo,Italy,
Pescocostanzo,false,0.4188722e2,0.1406639e2,Pescocostanzo,Abruzzo,Italy,http://www.comune.pescocostanzo.aq.it/
Rivisondoli,false,0.4187111e2,0.140675e2,Rivisondoli,Abruzzo,Italy,http://www.comune.rivisondoli.aq.it
Scanno,false,0.4190194e2,0.1388444e2,Scanno,Abruzzo,Italy,http://www.comune.scanno.aq.it
Roccaraso,false,0.4185111e2,0.1407917e2,Roccaraso,Abruzzo,Italy,http://www.comune.roccaraso.aq.it
Tagliacozzo,false,0.4207028e2,0.1325556e2,Viale Aldo Moro,Abruzzo,Italy,http://www.comune.tagliacozzo.aq.it
Prato Selva,false,0.4252389e2,0.1349056e2,Fano Adriano,Abruzzo,Italy,
Pizzoferrato,false,0.41917e2,0.14233e2,Pizzoferrato,Abruzzo,Italy,
Gamberale,false,0.419e2,0.14217e2,Gamberale,Abruzzo,Italy,http://www.comune.gamberale.ch.it/
Campitello Matese,false,0.4146333e2,0.1439417e2,Campitello Matese,Molise,Italy,http://www.campitellomatese.net/
Alto Sangro,false,0.4183032111e2,0.1402316694e2,Roccaraso,Abruzzo,Italy,https://www.roccaraso.net/home
Laceno,false,0.4080833e2,0.1511111e2,Villaggio Laceno,Campania,Italy,http://www.laceno.eu
Abriola,false,0.40517e2,0.15817e2,Abriola,Basilicata,Italy,http://www.comune.abriola.pz.it/
Sasso di Castalda,false,0.40483e2,0.15683e2,Sasso di Castalda,Basilicata,Italy,http://www.comune.sassodicastalda.pz.it/
Spezzano della Sila,false,0.393e2,0.1635e2,Spezzano della Sila,Calabria,Italy,http://spezzanodellasila.asmenet.it/
Petralia Sottana,false,0.378e2,0.14083e2,Petralia Sottana,Sicily,Italy,http://www.comune.petraliasottana.pa.it/
Brezovica ski resort,false,0.4222194e2,0.2100472e2,Brezovica - Brezovicë,Municipality of Štrpce,Kosovo,https://www.brezovica-ski.net
Malbun,false,0.47102e2,0.9608e1,Malbun,,Liechtenstein,http://www.malbun.li/
Santo Stefano in Aspromonte,false,0.38167e2,0.15783e2,Santo Stefano in Aspromonte,Calabria,Italy,
Anykščiai,false,0.55533e2,0.251e2,Draugystės g.,Utena County,Lithuania,
Mount Etna,false,0.37755e2,0.14995e2,Crateri Centrali,Sicily,Italy,
Druskininkai,false,0.54017e2,0.23967e2,Klonio g.,Alytus County,Lithuania,
Ignalina,false,0.5535e2,0.2616667e2,Strigailiškis,Utena County,Lithuania,https://www.ignalina.lt/
Liepkalnis Winter Sports Centre,false,0.5465575e2,0.2530687e2,Vilnius,Vilnius County,Lithuania,https://www.liepkalnis.lt/en/
Durmitor,false,0.4312778e2,0.1903333e2,no trail marking,,Montenegro,
Kožuf,false,0.4121667e2,0.2216667e2,Bohula,Vardar Region,North Macedonia,
Kolašin,false,0.4282361e2,0.195225e2,Trg. Vukmana Krščića,,Montenegro,
Kruševo,false,0.4137e2,0.2124833e2,Тоше Проески,Pelagonia Region,North Macedonia,
Mavrovo,false,0.4165e2,0.20733e2,Mavrovo,Polog Region,North Macedonia,
Nižepole,false,0.4101056e2,0.2124528e2,Nizhepole,Pelagonia Region,North Macedonia,
Popova Šapka,false,0.4201417e2,0.2088e2,Lisec,Polog Region,North Macedonia,
Filefjell,false,0.6115e2,0.825e1,Innlandet,Vang,Norway,
Bjorli,false,0.6225799e2,0.820583e1,Bjorli,Lesja,Norway,
Geilo,false,0.60517e2,0.82e1,Geilo,Hol,Norway,
Hafjell,false,0.6124222e2,0.1044194e2,Sportsvegen,Øyer,Norway,http://www.hafjell.no
Hemsedal,false,0.6090583e2,0.851472e1,Viken,Hemsedal,Norway,http://www.hemsedal.kommune.no
Hovden,false,0.595603e2,0.73567e1,Hovden,Bykle,Norway,
Kongsberg,false,0.5966944e2,0.965167e1,17 mai gata,Kongsberg,Norway,http://www.kongsberg.kommune.no
Målselv,false,0.68975e2,0.1906444e2,Troms og Finnmark,Målselv,Norway,http://www.malselv.kommune.no
Kvitfjell,false,0.6145e2,0.1012e2,Fåvang,Ringebu,Norway,http://www.kvitfjell.no/kvitfjell-en
Meråker,false,0.6343806e2,0.1184944e2,Trøndelag,Meråker,Norway,http://www.meraker.kommune.no
Narvik,false,0.6842056e2,0.1756e2,Nordland,Narvik,Norway,http://www.narvik.kommune.no
Norefjell,false,0.60267e2,0.9483e1,Buskerud,Krødsherad,Norway,
Rauland,false,0.5971631e2,0.798844e1,Totakvegen,Vinje,Norway,
Oppdal,false,0.6257361e2,0.960889e1,Trøndelag,Oppdal,Norway,http://www.oppdal.kommune.no
Sauda Skisenter,false,0.596247e2,0.62453e1,Svandal,Sauda,Norway,
Sirdal,false,0.5886194e2,0.681333e1,Ferjeplasset,Sirdal,Norway,http://www.sirdal.kommune.no
Sjusjøen,false,0.61155e2,0.1069833e2,Sjusjøen,Ringsaker,Norway,
Tromsø,false,0.6968278e2,0.1894278e2,Tromsø,,Norway,http://www.tromso.kommune.no
Stryn Sommerski,false,0.61955e2,0.736e1,Gamle Strynefjellsvegen,Stryn,Norway,http://www.strynsommerski.com/
Trondheim,false,0.6342972e2,0.1039333e2,Trondheim,,Norway,http://www.trondheim.kommune.no/
Trysil,false,0.6131e2,0.12315e2,Trysil,Trysil,Norway,http://www.trysil.kommune.no
Trondheim,false,0.6342972e2,0.1039333e2,Trondheim,,Norway,http://www.trondheim.kommune.no/
Tryvann,false,0.5999722e2,0.1066889e2,Oslo,Oslo,Norway,
Voss,false,0.607025e2,0.642306e1,Vestland,Voss,Norway,http://www.voss.kommune.no
Białka Tatrzańska,false,0.4939472e2,0.20105e2,Białka Tatrzańska,Lesser Poland Voivodeship,Poland,
Bukowina Tatrzańska,false,0.4935e2,0.20117e2,Bukowina Tatrzańska,Lesser Poland Voivodeship,Poland,
Karpacz,false,0.5077833e2,0.1575722e2,Nad Łomnicą,Lower Silesian Voivodeship,Poland,http://www.karpacz.pl
Krynica-Zdrój,false,0.4941167e2,0.20955e2,Józefa Ignacego Kraszewskiego,Lesser Poland Voivodeship,Poland,
Rabka-Zdrój,false,0.4960833e2,0.1996667e2,Aleja Tysiąclecia,Lesser Poland Voivodeship,Poland,http://www.rabka.pl
Sienna,false,0.5026167e2,0.1682222e2,Sienna,Lower Silesian Voivodeship,Poland,
Szczyrk,false,0.4971611e2,0.1902694e2,Deptak nad Żylicą,Silesian Voivodeship,Poland,
Szklarska Poręba,false,0.50833e2,0.15533e2,Osada Górska,Lower Silesian Voivodeship,Poland,
Ustroń,false,0.4971944e2,0.1881194e2,Cieszyn County,Silesian Voivodeship,Poland,
Wisła,false,0.496549139e2,0.188595083e2,Plac Bogumiła Hoffa,Silesian Voivodeship,Poland,https://www.wisla.pl/
Zakopane,false,0.493e2,0.1995e2,Nowotarska,Lesser Poland Voivodeship,Poland,http://www.zakopane.eu
Zawoja,false,0.49667e2,0.19567e2,Zawoja,Lesser Poland Voivodeship,Poland,
Serra da Estrela Ski Resort,false,0.4032361e2,-0.761306e1,Seia,,Portugal,https://www.skiserradaestrela.com/
Semenic,false,0.451791589e2,0.220613045e2,Văliug,,Romania,http://www.skiresorts.ro/index.php?pn=show_resort&res=31&lang=eng
Cârlibaba,false,0.47583e2,0.25133e2,Cârlibaba Nouă,,Romania,
Câmpulung Moldovenesc,false,0.4753083e2,0.2555139e2,Câmpulung Moldovenesc,,Romania,http://www.campulungmoldovenesc.ro
Gura Humorului,false,0.4755389e2,0.2588917e2,Piața Republicii,,Romania,http://www.primariagh.ro/
Pojorâta,false,0.47517e2,0.2545e2,Pojorâta,,Romania,
Moneasa,false,0.4645e2,0.2225e2,Rănușa,,Romania,https://primariamoneasa.ro
Vatra Dornei,false,0.4734611e2,0.2535944e2,Vatra Dornei,,Romania,http://www.vatra-dornei.ro/
Cavnic,false,0.4766083e2,0.2387778e2,DJ109F,,Romania,https://cavnic.ro
Borșa,false,0.4765528e2,0.2466306e2,Maramureș,,Romania,http://www.primariaborsamm.ro
Baia Mare,false,0.4765667e2,0.2357194e2,Baia Mare,,Romania,http://www.baiamare.ro/
Ocna Șugatag,false,0.47783e2,0.23933e2,Ocna Șugatag,,Romania,http://www.primariaocnasugatag.ro
Izvoare,false,0.4415e2,0.233e2,Izvoare,,Romania,
Durău,false,0.4699808e2,0.2592164e2,Ceahlău,,Romania,
Piatra Neamț,false,0.469275e2,0.2637083e2,Piatra Neamț,,Romania,http://www.primariapn.ro
Slănic-Moldova,false,0.4620694e2,0.2643056e2,Strada Mihalache Spiridon,,Romania,https://primariaslanicmoldova.ro/
Soveja,false,0.46e2,0.2665e2,Dragosloveni,Soveja,Romania,
Azuga,false,0.45445e2,0.2555528e2,Strada Independenței,,Romania,http://www.primariaazuga.ro
Bușteni,false,0.4541167e2,0.2553722e2,Strada Prahovei,,Romania,http://www.orasul-busteni.ro
Cheia,false,0.4545472e2,0.2593667e2,Cheia,Măneciu,Romania,
Rucăr,false,0.453875e2,0.2517083e2,Rucăr,,Romania,https://www.primariarucar.ro/
Băile Olănești,false,0.452e2,0.24233e2,Băile Olănești,,Romania,https://www.primariabaileolanesti.ro
Sinaia,false,0.4535e2,0.2555139e2,Calea Prahovei,,Romania,http://www.primaria-sinaia.ro/
Băile Govora,false,0.4508e2,0.2417972e2,Prajila,,Romania,https://www.primaria-baile-govora.ro
Ocnele Mari,false,0.45083e2,0.24317e2,Gura Suhașului,,Romania,http://www.ocne.ro
Călimănești,false,0.4523917e2,0.2434333e2,Strada Aurel Vlaicu,,Romania,http://www.primaria-calimanesti.ro
Ponoarele,false,0.44967e2,0.22783e2,Gărdăneasa,,Romania,
Rânca,false,0.45291337e2,0.23688927e2,Baia de Fier,,Romania,
Voineasa,false,0.44283e2,0.24133e2,Olt,Voineasa,Romania,
Vidra Lake,false,0.4543056e2,0.2373333e2,Vâlcea,Voineasa,Romania,
Albac,false,0.4645e2,0.22967e2,Albac,,Romania,https://www.primariaalbac.ro/
Arieșeni,false,0.46483e2,0.22767e2,Păntești,,Romania,https://comuna-arieseni.ro
Băișoara,false,0.4657556e2,0.234675e2,Băișoara,,Romania,https://www.primariabaisoara.ro/
Bâlea Lake,false,0.45602e2,0.24617e2,Cârțișoara,,Romania,
Bran,false,0.4551139e2,0.2536417e2,Bran,,Romania,http://www.primariabran.ro
Geoagiu,false,0.4592e2,0.232e2,Calea Romanilor,,Romania,http://www.geoagiu.ro/
Miercurea Ciuc,false,0.4635944e2,0.2580167e2,Miercurea Ciuc,,Romania,http://www.miercureaciuc.ro
Voșlăbeni,false,0.4665e2,0.25633e2,Voșlăbeni,,Romania,https://voslobeni.ro/
Păltiniș,false,0.4568278e2,0.2398361e2,Rășinari,,Romania,http://www.sibiu.ro/turism/en/paltinis.htm
Predeal,false,0.4550444e2,0.2557833e2,Strada Eroilor,Zona Metropolitană Brașov,Romania,http://primaria-predeal.ro
Poiana Brașov,false,0.4559722e2,0.2555194e2,Brasov,Zona Metropolitană Brașov,Romania,http://www.poianabrasov.com
Predeal,false,0.4550444e2,0.2557833e2,Strada Eroilor,Zona Metropolitană Brașov,Romania,http://primaria-predeal.ro
Sângeorz-Băi,false,0.4737e2,0.2468e2,Strada Carpaților,,Romania,https://www.singeorzbai.com/
Sovata,false,0.4659611e2,0.2507444e2,Strada Trandafirilor,,Romania,https://primariasovata.ro
Tiha Bârgăului,false,0.472333e2,0.2475e2,Prundu Bârgăului,,Romania,https://primariatihabargaului.ro
Straja,false,0.453207e2,0.232369e2,Lupeni,,Romania,
Dombay,false,0.433e2,0.41633e2,Dombay,Karachay-Cherkessia,Russia,
Mount Elbrus,false,0.43355e2,0.4243917e2,взлёт,Kabardino-Balkaria,Russia,
Rosa Khutor Alpine Resort,false,0.43646e2,0.40332e2,Ozernaya,Krasnodar Krai,Russia,http://en.rosaski.com/
Krasnaya Polyana,false,0.4367861e2,0.4020528e2,Zapovednaya Street,Krasnodar Krai,Russia,
Tsey,false,0.42767e2,0.43883e2,Alagirsky District,Republic of North Ossetia – Alania,Russia,
Toksovo,false,0.6015556e2,0.30525e2,Речная улица,Leningrad oblast,Russia,http://toksovo-lo.ru/
Korobitsyno,false,0.60517e2,0.29717e2,Коробицыно,Leningrad oblast,Russia,
Kirovsk,false,0.67617e2,0.3365e2,Kirovsk Urban Okrug,Murmansk Oblast,Russia,https://kirovsk.ru/
Korobitsyno,false,0.60517e2,0.29717e2,Коробицыно,Leningrad oblast,Russia,
Panovo,false,0.52983e2,0.82133e2,Panovo,Altai Krai,Russia,
Abzakovo,false,0.5382861e2,0.5859694e2,Abzakovo,Bashkortostan,Russia,
Lake Bannoye,false,0.5359667e2,0.5862972e2,Abzelilovsky District,Bashkortostan,Russia,
Adzhigardak,false,0.55e2,0.57265e2,улица Войкова,Chelyabinsk Oblast,Russia,
Minyar,false,0.55067e2,0.5755e2,улица Ленина,Chelyabinsk Oblast,Russia,http://minyar-city.ru/
Gubakha,false,0.5887056e2,0.5759333e2,Губахинский муниципальный округ,Perm Krai,Russia,
Stara Planina ski resort,false,0.4336944e2,0.2260889e2,Knjazevac Municipality,Central Serbia,Serbia,http://www.skijalistasrbije.rs/sr/o-centru-stara-planina
Crni Vrh,false,0.4413056e2,0.2196417e2,Zagubica Municipality,Central Serbia,Serbia,
Suva Planina,false,0.4318028e2,0.2217611e2,Gadzin Han Municipality,Central Serbia,Serbia,
Brezovica ski resort,false,0.4222194e2,0.2100472e2,Brezovica - Brezovicë,Municipality of Štrpce,Kosovo,https://www.brezovica-ski.net
Goč,false,0.4353639e2,0.2084556e2,Vrnjacka Banja Municipality,Central Serbia,Serbia,
Divčibare,false,0.4410694e2,0.1999167e2,Дивчибаре,Central Serbia,Serbia,
Golija,false,0.4333778e2,0.2027667e2,Ivanjica Municipality,Central Serbia,Serbia,
Kopaonik ski resort,false,0.4326917e2,0.208225e2,Raska Municipality,Central Serbia,Kosovo,https://www.eng.infokop.net
Mokra Gora,false,0.43792478e2,0.19506933e2,Uzice,Central Serbia,Serbia,
Tara,false,0.4384833e2,0.1945944e2,Uzice,Central Serbia,Serbia,
Tornik ski resort,false,0.4365472e2,0.1963917e2,Cajetina Municipality,Central Serbia,Serbia,http://www.skijalistasrbije.rs/sr/o-centru-tornik-zlatibor
Zlatar,false,0.4340889e2,0.197925e2,Prijepolje Municipality,Central Serbia,Serbia,
Besna Kobila,false,0.4252944e2,0.2223056e2,442,Central Serbia,Serbia,
Štrbské Pleso,false,0.49117e2,0.20067e2,Štrba,Region of Prešov,Slovakia,
Starý Smokovec,false,0.491417e2,0.20225e2,Penzión Tatrasport Zampa,Region of Prešov,Slovakia,
Tatranská Lomnica,false,0.49167e2,0.20283e2,Cesta slobody,Region of Prešov,Slovakia,
Jasná,false,0.48971654e2,0.19584846e2,Demänovská Dolina,Region of Žilina,Slovakia,https://www.jasna.sk/en/
Ždiar,false,0.4927083e2,0.2026528e2,Ždiar,Region of Prešov,Slovakia,
Mýto pod Ďumbierom,false,0.4885e2,0.19633e2,Mýto pod Ďumbierom,Region of Banská Bystrica,Slovakia,
Vrátna dolina,false,0.4922722e2,0.1903333e2,Terchová,Region of Žilina,Slovakia,
Oravská Lesná,false,0.4936889e2,0.1918361e2,Oravská Lesná,Region of Žilina,Slovakia,
Cerkno Ski Resort,false,0.461556e2,0.140491e2,Gorenji Novaki,,Slovenia,http://www.ski-cerkno.com/?lang=4/
Králiky,false,0.48733e2,0.19033e2,Králiky,Region of Banská Bystrica,Slovakia,
Golte Ski Resort,false,0.46356e2,0.149316e2,Radegunda,,Slovenia,http://www.golte.si/cms/en/index.php/winter/ski-centre-golte/
Javornik Ski Resort,false,0.459017e2,0.140815e2,Lome,,Slovenia,http://www.ski-javornik.si/index.php?lang=en/
Kanin-Sella Nevea Ski Resort,false,0.463376e2,0.135525e2,Ledina,,Slovenia,https://web.archive.org/web/20111005215937/http://www.kanin.si/index.php?lng=en%2F
Kobla Ski Resort,false,0.462674e2,0.139587e2,Bohinjska Bistrica,Bohinj,Slovenia,http://www.bohinj.si/kobla/en/naprave.html/
Kope–Ribnica Pohorje Ski Resort,false,0.465029e2,0.152111e2,Mislinja,,Slovenia,http://www.pohorje.org/en/kope-ribnisko-pohorje-winter/ski-resort-kope-ribnisko-pohorje/
Kranjska Gora Ski Resort,false,0.46485e2,0.13779e2,Kranjska Gora,,Slovenia,http://www.kr-gora.si/eng/winter/
Krvavec Ski Resort,false,0.463005e2,0.145349e2,Cerklje na Gorenjskem,,Slovenia,http://www.rtc-krvavec.si/en/winter/
Maribor Pohorje Ski Resort,false,0.46534e2,0.156e2,Maribor,,Slovenia,http://visitpohorje.si/en/
Rogla Ski Resort,false,0.464514e2,0.153287e2,Rogla,,Slovenia,http://www.rogla.eu/en/winter/
Soriška Planina Ski Resort,false,0.462402e2,0.140081e2,Litostrojska koča,,Slovenia,http://www.soriska-planina.si/index.php?module=strani/
Stari Vrh Ski Resort,false,0.461832e2,0.141922e2,Selca,,Slovenia,http://www.starivrh.si/slo/vstopna/
Trije Kralji Ski Resort,false,0.464382e2,0.154598e2,929,,Slovenia,http://www.jakec-sp.si/Default.asp?IDM=0/
Velika Planina Ski Resort,false,0.463045e2,0.146093e2,Kamniška Bistrica,Upravna Enota Kamnik,Slovenia,http://www.velikaplanina.si/What-to-do-winter/Skiing/
Vogel Ski Resort,false,0.462756e2,0.138353e2,Ukanc,Bohinj,Slovenia,http://www.vogel.si/index-en.php/
Vallter 2000,false,0.4242694e2,0.2265e1,Setcases,Catalonia,Spain,https://www.vallter.cat/en/
Vall de Núria,false,0.424e2,0.215e1,Queralbs,Catalonia,Spain,
Aransa,false,0.4242e2,0.164e1,Lles de Cerdanya,Catalonia,Spain,http://www.aransaski.cat
Guils Fontanera,false,0.4246e2,0.184e1,Guils de Cerdanya,Catalonia,Spain,http://www.guils.com/
Alp 2500,false,0.42329375e2,0.1914024e1,Alp,Catalonia,Spain,http://www.lamolina-masella.cat/en/
Lles,false,0.4243111e2,0.166806e1,Lles de Cerdanya,Catalonia,Spain,http://www.lles.net/estacio/lles.html
Port Ainé,false,0.4242833e2,0.121194e1,Rialp,Catalonia,Spain,http://www.granpallars.com/estacio_ficha_tecnica.php?id=port_aine
Port del Comte,false,0.4217278e2,0.156194e1,la Coma i la Pedra,Catalonia,Spain,http://www.portdelcomte.net
Tavascan Pleta del Prat,false,0.4267861e2,0.121944e1,Lladorre,Catalonia,Spain,http://www.tavascan.net
Tuixent – la Vansa,false,0.4222278e2,0.153833e1,Josa i Tuixén,Catalonia,Spain,http://www.tuixent-lavansa.com/
Espot Esquí,false,0.4255056e2,0.108083e1,Espot,Catalonia,Spain,https://www.espotesqui.cat/en/
Baqueira-Beret,false,0.4269917e2,0.94667e0,C-142-B,Catalonia,Spain,http://www.baqueira.es
Boí Taüll Resort,false,0.4247778e2,0.87083e0,la Vall de Boí,Catalonia,Spain,http://www.boitaullresort.com
Estella-Lizarra,false,0.4266889e2,-0.203083e1,Calle Fray Diego de Estella,Navarre,Spain,
Cerler,false,0.4259333e2,0.53833e0,Cerler,Aragon,Spain,http://www.cerler.com
Panticosa-Los Lagos,false,0.42702989e2,-0.274594e0,Panticosa,Aragon,Spain,http://www.panticosa-loslagos.com
Formigal Ski Resort,false,0.42775e2,-0.372e0,Sallent de Gállego,Aragon,Spain,http://www.formigal.com
Astún,false,0.4280972e2,-0.50611e0,Pista de La Raca,Aragon,Spain,http://www.astun.com
Candanchú,false,0.4278806e2,-0.52778e0,Aísa,Aragon,Spain,http://www.candanchu.com
Alto Campoo,false,0.43037125e2,-0.43735639e1,Hermandad de Campoo de Suso,Cantabria,Spain,http://www.altocampoo.com
Manzaneda,false,0.4230944e2,-0.723333e1,Manzaneda,Galicia,Spain,http://www.concellodemanzaneda.es/
La Covatilla,false,0.403541e2,-0.56901e1,La Hoya,Castile and León,Spain,http://www.sierradebejar-lacovatilla.com/
Navacerrada,false,0.4073e2,-0.401528e1,Navacerrada,Community of Madrid,Spain,
La Pinilla ski resort,false,0.412034028e2,-0.34723444e1,Cerezo de Arriba,Castile and León,Spain,http://www.lapinilla.es
Navafría,false,0.4105472e2,-0.38225e1,Navafría,Castile and León,Spain,http://www.navafria.es/
Puerto de Cotos,false,0.408233e2,-0.39623e1,Carretera del Puerto de Cotos,Castile and León,Spain,
Valdesquí,false,0.40799e2,-0.39719e1,Rascafría,Community of Madrid,Spain,http://www.valdesqui.es
Valdelinares,false,0.404e2,-0.6e0,Valdelinares,Aragon,Spain,
Sierra de Javalambre,false,0.40097139e2,-0.102472e1,La Puebla de Valverde,Aragon,Spain,
Valdezcaray,false,0.4225e2,-0.2967e1,Villavelayo,Rioja,Spain,http://www.valdezcaray.es
Sierra Nevada Ski Station,false,0.3709e2,-0.34e1,Pradollano,Andalusia,Spain,http://sierranevada.es/
Abisko,false,0.6835e2,0.18817e2,Abisko,Kiruna kommun,Sweden,
Åre,false,0.634e2,0.13083e2,Åre,Åre kommun,Sweden,
Bjursås,false,0.60733e2,0.15433e2,Bjursås,Falu kommun,Sweden,
Dundret,false,0.670944e2,0.205519e2,Dundret,Gällivare kommun,Sweden,
Åre ski resort,false,0.63415e2,0.13062e2,Årevägen,Åre kommun,Sweden,http://www.skistar.com/are/
Edsåsdalen,false,0.633152722e2,0.130852667e2,Edsåsdalen,Åre kommun,Sweden,http://www.edsasdalen.se/startpage.aspx?id=252
Stockholm,false,0.5932944e2,0.1806861e2,Stockholm,Solna kommun,Sweden,https://start.stockholm/
Funäsdalen,false,0.62533e2,0.1255e2,Jämtland County,Härjedalens kommun,Sweden,
Hemavan,false,0.65833e2,0.15083e2,Hemavan,Storumans kommun,Sweden,
Hassela,false,0.62133e2,0.16717e2,Liljemyrvägen,Nordanstigs kommun,Sweden,
Idre,false,0.6185667e2,0.1271667e2,Idre,Älvdalens kommun,Sweden,
Hestra,false,0.5745e2,0.13583e2,Hestra,Gislaveds kommun,Sweden,
Sandviken,false,0.60617e2,0.16783e2,Storgatan,Sandvikens kommun,Sweden,
Lofsdalen,false,0.62117e2,0.13267e2,Lofsdalen,Härjedalens kommun,Sweden,
Nalovardo,false,0.656501e2,0.175004e2,Nalovardo stugby,Sorsele kommun,Sweden,http://www.lapplandskatan.nu
Riksgränsen,false,0.6842778e2,0.1812222e2,Riksgränsvägen,Kiruna kommun,Sweden,
Storlien,false,0.63317e2,0.12167e2,Jämtland County,Åre kommun,Sweden,
Sollefteå,false,0.63167e2,0.17267e2,Sollefteå District,Sollefteå kommun,Sweden,
Sälen,false,0.6115e2,0.13267e2,Södra brändan,Malung-Sälens kommun,Sweden,
Vemdalen,false,0.6245e2,0.13867e2,Vemdalen,Härjedalens kommun,Sweden,
Tärnaby,false,0.65717e2,0.15267e2,Tärnaby,Storumans kommun,Sweden,
Andermatt,false,0.46617e2,0.8583e1,Hospental,Uri,Switzerland,http://www.gemeinde-andermatt.ch
Melchsee-Frutt,false,0.4677556e2,0.826944e1,Melchsee-Frutt,Obwalden,Switzerland,
Engelberg,false,0.46821028e2,0.8408972e1,Engelberg,Obwalden,Switzerland,http://gde-engelberg.ch
Sörenberg,false,0.4682278e2,0.803333e1,Sörenberg,Lucerne,Switzerland,
Stoos,false,0.469825e2,0.8665e1,Stoos SZ,Schwyz,Switzerland,
Braunwald,false,0.46933e2,0.9e1,Glarus Süd,Glarus,Switzerland,
Elm,false,0.46917e2,0.9167e1,Glarus Süd,Glarus,Switzerland,
Pizol,false,0.4695917e2,0.938667e1,Pfäfers,St. Gallen,Switzerland,
Flumserberg,false,0.4709e2,0.929667e1,Tannenheim,St. Gallen,Switzerland,
Wildhaus,false,0.472e2,0.935e1,Wildhaus-Alt St. Johann,St. Gallen,Switzerland,http://www.wildhaus.ch
Adelboden,false,0.465e2,0.7567e1,Adelboden,Bern,Switzerland,http://3715.ch
Axalp,false,0.4671889e2,0.803778e1,Axalp,Bern,Switzerland,
Beatenberg,false,0.46683e2,0.7783e1,Sundlauenen,Bern,Switzerland,http://beatenberg.ch
Grindelwald,false,0.46617e2,0.8033e1,Grindelwald,Bern,Switzerland,http://www.gemeinde-grindelwald.ch
Kandersteg,false,0.465e2,0.7667e1,Kandersteg,Bern,Switzerland,http://www.kandersteg.ch
Gstaad,false,0.46467e2,0.7283e1,Gstaad,Bern,Switzerland,
Lenk im Simmental,false,0.4645e2,0.7433e1,Lenk,Bern,Switzerland,http://www.lenkgemeinde.ch
Mürren,false,0.4655944e2,0.789222e1,Mürren,Bern,Switzerland,
Meiringen,false,0.46727383e2,0.818733e1,Meiringen,Bern,Switzerland,http://www.meiringen.ch
Les Prés-d'Orvin,false,0.4715361e2,0.717917e1,Orvin,Bern,Switzerland,
Tramelan,false,0.47217e2,0.71e1,Tramelan,Bern,Switzerland,http://www.tramelan.ch
Zweisimmen,false,0.4655e2,0.7367e1,Mannried,Bern,Switzerland,http://www.zweisimmen.ch
Wengen,false,0.466e2,0.7917e1,Wengen,Bern,Switzerland,
La Berra,false,0.46675972e2,0.7184028e1,Montsoflo,Fribourg,Switzerland,
Charmey,false,0.46617e2,0.7167e1,Val-de-Charmey,Fribourg,Switzerland,http://www.val-de-charmey.ch
Jaun,false,0.46617e2,0.7267e1,Jaun,Fribourg,Switzerland,http://www.jaun.ch
Moléson,false,0.46548778e2,0.7017139e1,Gruyères,Fribourg,Switzerland,
Les Paccots,false,0.4652278e2,0.6945e1,Les Paccots,Fribourg,Switzerland,http://www.les-paccots.ch
Rathvel,false,0.4654444e2,0.698028e1,Châtel-Saint-Denis,Fribourg,Switzerland,http://www.rathvel.ch
Schwarzsee,false,0.4666528e2,0.728056e1,Schwarzsee,Fribourg,Switzerland,
Arosa,false,0.46783e2,0.9683e1,Arosa,Grisons,Switzerland,http://gemeindearosa.ch
Bergün/Bravuogn,false,0.46617e2,0.975e1,Bergün Filisur,Grisons,Switzerland,http://www.berguen.ch
Breil/Brigels,false,0.46767e2,0.905e1,Dardin,Grisons,Switzerland,http://www.breil.ch
Davos,false,0.468e2,0.9833e1,Talstrasse,Grisons,Switzerland,http://www.gemeinde-davos.ch
Disentis,false,0.467e2,0.8867e1,Disentis/Mustér,Grisons,Switzerland,http://disentis.ch
Flims,false,0.46833e2,0.9283e1,Flims,Grisons,Switzerland,http://www.gemeindeflims.ch
Klosters,false,0.46883e2,0.9883e1,Klosters,Grisons,Switzerland,http://www.klosters-serneus.ch
Lenzerheide,false,0.4675e2,0.955e1,Vaz/Obervaz,Grisons,Switzerland,
Laax,false,0.468e2,0.925e1,Laax,Grisons,Switzerland,http://www.laax-gr.ch
Obersaxen,false,0.46733e2,0.91e1,Obersaxen-Mundaun,Grisons,Switzerland,http://www.obersaxenmundaun.swiss
St. Moritz,false,0.4649722e2,0.983778e1,Via Traunter Plazzas,Grisons,Switzerland,http://www.gemeinde-stmoritz.ch
Samnaun,false,0.46933e2,0.1035e2,Samnaun,Grisons,Switzerland,http://www.gemeindesamnaun.ch
Savognin,false,0.46583e2,0.9583e1,Surses,Grisons,Switzerland,http://www.savognin.ch
San Bernardino,false,0.4645e2,0.92e1,San Bernardino,Grisons,Switzerland,
Scuol,false,0.468e2,0.10283e2,Vulpera,Grisons,Switzerland,http://www.scuol.ch
Tujetsch,false,0.46683e2,0.8767e1,Tujetsch,Grisons,Switzerland,http://www.tujetsch.ch
Sils im Engadin/Segl,false,0.46433e2,0.9767e1,Sils im Engadin/Segl,Grisons,Switzerland,http://www.sils-segl.ch
Vals,false,0.46617e2,0.9183e1,Vals,Grisons,Switzerland,http://www.vals.ch
Les Breuleux,false,0.472e2,0.7e1,Les Breuleux,Jura,Switzerland,http://www.breuleux.ch
Les Genevez,false,0.4725e2,0.7133e1,Les Genevez (JU),Jura,Switzerland,http://www.lesgenevez.ch
Bosco/Gurin,false,0.46317e2,0.85e1,Bosco/Gurin,Ticino,Switzerland,http://www.bosco-gurin.ch
Airolo,false,0.46533e2,0.8617e1,Airolo,Ticino,Switzerland,http://airolo.ch
Carì,false,0.4649361e2,0.881667e1,Faido,Ticino,Switzerland,
Arolla,false,0.46017e2,0.7483e1,Arolla,Wallis,Switzerland,
Belalp,false,0.4637139e2,0.797417e1,Belalp,Wallis,Switzerland,
Anzère,false,0.46296e2,0.7398e1,Ayent,Wallis,Switzerland,
Bettmeralp,false,0.46383e2,0.8083e1,Betten,Wallis,Switzerland,http://gemeinde.bettmeralp.ch
Naters,false,0.46317e2,0.7983e1,Brig-Glis,Wallis,Switzerland,http://www.naters.ch
Champéry,false,0.46183e2,0.6867e1,Champéry,Wallis,Switzerland,http://www.champery.ch
Champex,false,0.46033e2,0.7117e1,Champex-Lac,Wallis,Switzerland,
Crans-Montana,false,0.46317e2,0.7483e1,Crans-Montana,Wallis,Switzerland,
Chandolin,false,0.4625e2,0.76e1,Anniviers,Wallis,Switzerland,http://www.chandolin.ch
Evolène,false,0.46117e2,0.75e1,Villa (Evolène),Wallis,Switzerland,http://www.commune-evolene.ch
Fiesch,false,0.464e2,0.8133e1,Fiesch,Wallis,Switzerland,http://www.fiesch.com
La Fouly,false,0.45933e2,0.7083e1,La Fouly,Wallis,Switzerland,
Grächen,false,0.46167e2,0.7817e1,St. Niklaus,Wallis,Switzerland,http://gemeinde-graechen.ch
Grimentz,false,0.4618083e2,0.757611e1,Anniviers,Wallis,Switzerland,http://www.grimentz.ch
Leukerbad,false,0.46383e2,0.7633e1,Leukerbad,Wallis,Switzerland,http://www.leukerbad.org
Lötschental,false,0.46417e2,0.7833e1,Blatten,Wallis,Switzerland,
Morgins,false,0.462382e2,0.68519e1,Morgins,Wallis,Switzerland,
Ovronnaz,false,0.4620194e2,0.716889e1,Ovronnaz,Wallis,Switzerland,
Nendaz,false,0.46183e2,0.73e1,Haute Nendaz,Wallis,Switzerland,http://www.nendaz.org
Saas-Fee,false,0.4610967e2,0.792917e1,Saas-Fee,Wallis,Switzerland,http://saas-fee.ch
Riederalp,false,0.46383e2,0.8033e1,Goppisberg,Wallis,Switzerland,http://riederalp.ch
Saas-Grund,false,0.46117e2,0.7933e1,Saas-Fee,Wallis,Switzerland,http://saas-grund.ch
Saint-Luc,false,0.46217e2,0.76e1,Anniviers,Wallis,Switzerland,http://www.saint-luc.ch
Salvan,false,0.46117e2,0.7017e1,Les Marécottes,Wallis,Switzerland,http://www.salvan.ch
La Tzoumaz,false,0.461447e2,0.723306e1,La Tzoumaz,Wallis,Switzerland,http://www.latzoumaz-en.com/
Verbier,false,0.461e2,0.7217e1,Verbier,Wallis,Switzerland,
Visperterminen,false,0.4625e2,0.79e1,Visperterminen,Wallis,Switzerland,http://www.visperterminen.ch
Vercorin,false,0.4625722e2,0.753056e1,Vercorin,Wallis,Switzerland,
Zermatt,false,0.46017e2,0.775e1,Apartment Lani,Wallis,Switzerland,http://zermatt.ch
Zinal,false,0.46133e2,0.7617e1,Anniviers,Wallis,Switzerland,
Château-d'Œx,false,0.46467e2,0.7117e1,Les Moulins,Vaud,Switzerland,http://chateaudoex-admin.ch
Les Diablerets,false,0.4635139e2,0.715806e1,Ormont-Dessus,Vaud,Switzerland,
La Dôle,false,0.46425e2,0.609944e1,La Rippe,Vaud,Switzerland,
Leysin,false,0.46333e2,0.7e1,Leysin,Vaud,Switzerland,http://leysin-commune.ch/
Saint-Cergue,false,0.4645e2,0.615e1,Saint-Cergue,Vaud,Switzerland,http://www.st-cergue.ch
Col des Mosses,false,0.464031833e2,0.71023167e1,Ormont-Dessous,Vaud,Switzerland,
Sainte-Croix,false,0.46817e2,0.65e1,Sainte-Croix,Vaud,Switzerland,http://www.sainte-croix.ch
Vallée de Joux,false,0.46583e2,0.6217e1,Le Brassus,Vaud,Switzerland,
Bukovel,false,0.4836028e2,0.2439222e2,Polianytsia,Ivano-Frankivsk Oblast,Ukraine,
Villars-sur-Ollon,false,0.4629556e2,0.705556e1,Villars-sur-Ollon,Vaud,Switzerland,http://www.ollon.ch
Slavske,false,0.4984861e2,0.2344722e2,Novosilky,Lviv Oblast,Ukraine,
Tysovets,false,0.4898222e2,0.2327917e2,Oriavchyk,Lviv Oblast,Ukraine,
Burnhope Seat,false,0.5473202e2,-0.233539e1,Westmorland and Furness,England,United Kingdom,
Burnhope Seat,false,0.5473202e2,-0.233539e1,Westmorland and Furness,England,United Kingdom,
Raise,false,0.54547e2,-0.3014e1,Patterdale,England,United Kingdom,
Weardale,false,0.54716e2,-0.1925e1,Wolsingham,England,United Kingdom,
Cairn Gorm,false,0.571171e2,-0.36423e1,Marquis Well Path,Scotland,United Kingdom,http://www.cairngormmountain.org
Glencoe Ski area,false,0.5663194e2,-0.482639e1,Glencoe Mountain Resort,Scotland,United Kingdom,https://www.glencoemountain.co.uk
Glenshee Ski Centre,false,0.56883e2,-0.3417e1,Old Military Road,Scotland,United Kingdom,https://www.ski-glenshee.co.uk
Lecht Ski Centre,false,0.571681e2,-0.32315e1,A939,Scotland,United Kingdom,https://www.lecht.co.uk
Aonach Mòr,false,0.568124e2,-0.496177e1,Highland,Scotland,United Kingdom,https://www.nevisrange.co.uk
Lowther Hills,false,0.554e2,-0.374e1,South Lanarkshire,Scotland,United Kingdom,
Pentland Hills,false,0.558083e2,-0.3375e1,Scottish Borders,Scotland,United Kingdom,
