name,closed,lat,lng,city,state,url,forecast_url
Mohawk Mountain Ski Area,true,41.83675,-73.31342,,Connecticut,http://www.mohawkmtn.com/,"https://api.weather.gov/gridpoints/ALY/79,23/forecast"
Mount Southington,false,41.58235,-72.92587,Mount Southington,Connecticut,http://www.mountsouthington.com,"https://api.weather.gov/gridpoints/BOX/15,44/forecast"
Powder Ridge Ski Area,false,41.502006,-72.737172,,Connecticut,http://powderridgepark.com/,"https://api.weather.gov/gridpoints/OKX/70,76/forecast"
Ski Sundown,false,41.88407,-72.94523,Ski Sundown,Connecticut,http://www.skisundown.com/,"https://api.weather.gov/gridpoints/ALY/91,28/forecast"
Baker Mountain,false,45.08472,-69.90556,Baker Mountain Ski Area,Maine,,"https://api.weather.gov/gridpoints/GYX/75,125/forecast"
Big Rock,false,46.52222,-67.82778,Bigrock Mountain,Maine,http://www.bigrockmaine.com/,"https://api.weather.gov/gridpoints/CAR/87,148/forecast"
Big Squaw Mountain Resort,false,45.50417,-69.70556,Big Squaw Mountain Ski Resort,Maine,,"https://api.weather.gov/gridpoints/CAR/36,89/forecast"
Black Mountain of Maine,false,44.58,-70.6175,Black Mountain,Maine,http://www.skiblackmountain.org,"https://api.weather.gov/gridpoints/GYX/56,98/forecast"
Camden Snow Bowl,false,44.217216,-69.134667,Sidecoundtry Sports,Maine,http://www.camdensnowbowl.com/,"https://api.weather.gov/gridpoints/GYX/107,90/forecast"
Eaton Mountain,false,44.76806,-69.61944,Eaton Mountain,Maine,,"https://api.weather.gov/gridpoints/GYX/87,112/forecast"
Lonesome Pine Trails,false,47.23278,-68.59306,Fort Kent Mills,Maine,,"https://api.weather.gov/gridpoints/CAR/56,176/forecast"
Lost Valley Ski Area,false,44.136,-70.281,Auburn,Maine,http://www.lostvalleyski.com/index.html,"https://api.weather.gov/gridpoints/GYX/71,79/forecast"
Ski Mount Abram,false,44.37917,-70.70694,Mt. Abram,Maine,http://www.mtabram.com/,"https://api.weather.gov/gridpoints/GYX/55,88/forecast"
Powderhouse Hill,false,43.23694,-70.80222,,Maine,http://www.powderhousehill.com/,"https://api.weather.gov/gridpoints/GYX/61,35/forecast"
Saddleback Maine,true,44.93667,-70.50306,Madrid Township,Maine,http://www.saddlebackmaine.com,"https://api.weather.gov/gridpoints/GYX/57,115/forecast"
Pleasant Mountain Ski Area,true,44.05833,-70.81528,Base Lodge,Maine,http://www.pleasantmountain.com,"https://api.weather.gov/gridpoints/GYX/54,73/forecast"
Sugarloaf,false,45.03139,-70.31306,Carrabassett Valley,Maine,http://www.sugarloaf.com/,"https://api.weather.gov/gridpoints/GYX/62,120/forecast"
Sunday River,false,44.4734,-70.8569,South Ridge Base Lodge,Maine,http://www.sundayriver.com/,"https://api.weather.gov/gridpoints/GYX/49,91/forecast"
Titcomb Mountain,false,44.65,-70.17083,Titcomb Mountain Ski Area,Maine,http://www.titcombmountain.com/,"https://api.weather.gov/gridpoints/GYX/70,104/forecast"
Berkshire East Ski Resort,false,42.62083,-72.87694,Main Lodge,Massachusetts,http://www.berkshireeast.com/,"https://api.weather.gov/gridpoints/BOX/9,91/forecast"
Blue Hills Ski Area,false,42.21528,-71.11917,Blue Hills Ski Area,Massachusetts,https://www.bluehillsboston.com/,"https://api.weather.gov/gridpoints/BOX/71,83/forecast"
Bousquet Mountain,true,42.4171,-73.2788,Pittsfield,Massachusetts,https://bousquetmountain.com/,"https://api.weather.gov/gridpoints/ALY/76,50/forecast"
Ski Butternut,true,42.17806,-73.31694,Lower Lodge,Massachusetts,http://www.skibutternut.com,"https://api.weather.gov/gridpoints/ALY/76,39/forecast"
Easton Ski Area,false,42.5387,-72.5938,,Massachusetts,http://www.eaglebrook.org/,"https://api.weather.gov/gridpoints/BOX/19,89/forecast"
Jiminy Peak,true,42.55083,-73.29083,,Massachusetts,http://jiminypeak.com/,"https://api.weather.gov/gridpoints/ALY/74,56/forecast"
Nashoba Valley Ski Area,false,42.541975,-71.4441028,,Massachusetts,http://www.skinashoba.com/,"https://api.weather.gov/gridpoints/BOX/57,96/forecast"
Otis Ridge,false,42.1964,-73.0988,,Massachusetts,https://otisridge.com/,"https://api.weather.gov/gridpoints/ALY/83,41/forecast"
Ski Bradford,true,42.74361,-71.05889,Haverhill,Massachusetts,http://skibradford.com/,"https://api.weather.gov/gridpoints/BOX/68,107/forecast"
Ski Ward,false,42.30556,-71.675,,Massachusetts,http://www.skiward.com/,"https://api.weather.gov/gridpoints/BOX/51,84/forecast"
Wachusett Mountain,false,42.49944,-71.88639,,Massachusetts,http://www.wachusett.com,"https://api.weather.gov/gridpoints/BOX/43,91/forecast"
Arrowhead Recreation Area,false,43.36278,-72.33333,Claremont,New Hampshire,http://www.arrowheadnh.com,"https://api.weather.gov/gridpoints/GYX/9,32/forecast"
Attitash Mountain Resort,false,44.08222,-71.22972,Bartlett,New Hampshire,http://www.attitash.com,"https://api.weather.gov/gridpoints/GYX/40,71/forecast"
Black Mountain Ski Area,true,44.16833,-71.16444,Jackson,New Hampshire,http://www.blackmt.com/,"https://api.weather.gov/gridpoints/GYX/41,76/forecast"
Bretton Woods Mountain Resort,false,44.25972,-71.46222,Carroll,New Hampshire,http://brettonwoods.com,"https://api.weather.gov/gridpoints/GYX/31,78/forecast"
Cannon Mountain Ski Area,true,44.15778,-71.69889,Franconia,New Hampshire,http://www.cannonmt.com,"https://api.weather.gov/gridpoints/GYX/24,72/forecast"
Cranmore Mountain Resort,false,44.05639,-71.11,Tickets,New Hampshire,http://www.cranmore.com/,"https://api.weather.gov/gridpoints/GYX/44,71/forecast"
Crotched Mountain,false,42.99829411,-71.8737123,Francestown,New Hampshire,,"https://api.weather.gov/gridpoints/GYX/27,18/forecast"
Dartmouth Skiway,false,43.78667,-72.43389,Sharon,Vermont,http://skiway.dartmouth.edu,"https://api.weather.gov/gridpoints/BTV/118,28/forecast"
Granite Gorge Ski Area,false,42.97083,-72.21222,Roxbury,New Hampshire,http://www.granitegorge.com/,"https://api.weather.gov/gridpoints/GYX/16,15/forecast"
Gunstock Mountain Resort,false,43.54139,-71.3675,Gilford,New Hampshire,http://www.gunstock.com,"https://api.weather.gov/gridpoints/GYX/40,46/forecast"
King Pine,false,43.87139,-71.08944,Eaton,New Hampshire,http://www.kingpine.com/,"https://api.weather.gov/gridpoints/GYX/46,63/forecast"
Loon Mountain,false,44.03597,-71.62144,Lincoln,New Hampshire,,"https://api.weather.gov/gridpoints/GYX/27,67/forecast"
McIntyre Ski Area,false,43.005,-71.44,Manchester,New Hampshire,http://www.mcintyreskiarea.com,"https://api.weather.gov/gridpoints/GYX/42,21/forecast"
Mount Sunapee Resort,false,43.33056,-72.08,Newbury,New Hampshire,http://www.mountsunapee.com,"https://api.weather.gov/gridpoints/GYX/18,32/forecast"
Pats Peak,false,43.16333,-71.79583,Henniker,New Hampshire,http://www.patspeak.com,"https://api.weather.gov/gridpoints/GYX/28,26/forecast"
Ragged Mountain Resort,false,43.48444,-71.84222,Danbury,New Hampshire,http://www.raggedmountainresort.com/,"https://api.weather.gov/gridpoints/GYX/24,41/forecast"
Tenney Mountain Ski Resort,false,43.73778,-71.78361,Groton,New Hampshire,,"https://api.weather.gov/gridpoints/GYX/24,52/forecast"
The Balsams Grand Resort Hotel,false,44.87056,-71.30778,,New Hampshire,,"https://api.weather.gov/gridpoints/GYX/31,107/forecast"
Waterville Valley Resort,false,43.96528,-71.52778,Waterville Valley,New Hampshire,http://www.waterville.com,"https://api.weather.gov/gridpoints/GYX/31,64/forecast"
Whaleback,false,43.60139,-72.18139,Enfield,New Hampshire,http://www.whaleback.com/,"https://api.weather.gov/gridpoints/GYX/12,44/forecast"
Wildcat Mountain Ski Area,false,44.26306,-71.23833,Bobcat Lodge,New Hampshire,http://www.skiwildcat.com,"https://api.weather.gov/gridpoints/GYX/38,80/forecast"
Yawgoo Valley,true,41.51694,-71.52944,,Rhode Island,http://www.yawgoo.com,"https://api.weather.gov/gridpoints/BOX/62,49/forecast"
Brownsville,false,43.46861,-72.47083,West Windsor,Vermont,http://www.westwindsorvt.govoffice2.com,"https://api.weather.gov/gridpoints/BTV/120,13/forecast"
Bellows Falls,false,43.13333,-72.44389,Rockingham,Vermont,https://www.rockinghamvt.org/,"https://api.weather.gov/gridpoints/ALY/98,87/forecast"
Bolton Valley,false,44.419621,-72.849998,Bolton,Vermont,http://www.boltonvalley.com/,"https://api.weather.gov/gridpoints/BTV/100,55/forecast"
Bromley Mountain,false,43.22778,-72.93861,Peru,Vermont,,"https://api.weather.gov/gridpoints/ALY/81,89/forecast"
Burke Mountain,false,44.57083,-71.89317,Burke,Vermont,,"https://api.weather.gov/gridpoints/BTV/130,67/forecast"
Skiing Cochrans,false,44.396,-72.982,Richmond,Vermont,,"https://api.weather.gov/gridpoints/BTV/96,53/forecast"
Strafford,false,43.86583,-72.37722,Strafford,Vermont,,"https://api.weather.gov/gridpoints/BTV/120,32/forecast"
St. Albans,false,44.81028,-73.15222,Saint Albans,Vermont,http://www.stalbanstown.com,"https://api.weather.gov/gridpoints/BTV/87,71/forecast"
Haystack Mountain Ski Area,false,42.9226028,-72.8945694,Wilmington,Vermont,http://www.hermitageclub.com/,"https://api.weather.gov/gridpoints/ALY/85,75/forecast"
Jay Peak Resort,false,44.92944,-72.53222,Jay,Vermont,http://www.jaypeakresort.com/,"https://api.weather.gov/gridpoints/BTV/106,80/forecast"
Killington Ski Resort,true,43.626,-72.798,Killington,Vermont,http://www.killington.com/,"https://api.weather.gov/gridpoints/BTV/108,19/forecast"
Brattleboro,false,42.85,-72.58222,,Vermont,,"https://api.weather.gov/gridpoints/ALY/96,73/forecast"
Lyndon,false,44.53583,-72.00528,Lyndonville,Vermont,http://www.lyndonvt.org,"https://api.weather.gov/gridpoints/BTV/127,65/forecast"
Mad River Glen,true,44.20083,-72.92444,Fayston,Vermont,http://www.madriverglen.com,"https://api.weather.gov/gridpoints/BTV/99,44/forecast"
Magic Mountain Ski Area,true,43.19278,-72.76,Londonderry,Vermont,http://www.magicmtn.com,"https://api.weather.gov/gridpoints/ALY/87,88/forecast"
Middlebury College Snow Bowl,false,43.94,-72.96,Hancock,Vermont,http://www.middlebury.edu/about/facilities/snow_bowl,"https://api.weather.gov/gridpoints/BTV/100,32/forecast"
Mount Snow,false,42.959,-72.922,Somerset,Vermont,https://www.mountsnow.com,"https://api.weather.gov/gridpoints/ALY/84,77/forecast"
Northeast Slopes,false,44.0725,-72.25028,Corinth,Vermont,https://northeastslopes.org,"https://api.weather.gov/gridpoints/BTV/122,42/forecast"
Okemo Mountain,false,43.40139,-72.71667,Ludlow,Vermont,http://www.okemo.com/,"https://api.weather.gov/gridpoints/BTV/112,9/forecast"
Pico Mountain,true,43.66167,-72.8425,Killington,Vermont,http://www.picomountain.com/,"https://api.weather.gov/gridpoints/BTV/106,20/forecast"
Plymouth Notch,false,43.5299,-72.7388,Plymouth,Vermont,,"https://api.weather.gov/gridpoints/BTV/110,15/forecast"
Quechee Ski Area,false,43.6572,-72.4431,Ski Ticket Booth,Vermont,,"https://api.weather.gov/gridpoints/BTV/119,22/forecast"
Saskadena Six,false,43.66389,-72.54444,Pomfret,Vermont,http://saskadenasix.com,"https://api.weather.gov/gridpoints/BTV/116,22/forecast"
Smugglers' Notch Resort,false,44.57278,-72.77611,Cambridge,Vermont,http://www.smuggs.com,"https://api.weather.gov/gridpoints/BTV/101,62/forecast"
Stowe Mountain Resort,false,44.53194,-72.7875,,Vermont,http://www.stowe.com,"https://api.weather.gov/gridpoints/BTV/101,60/forecast"
Stratton Mountain Resort,false,43.11417,-72.90667,Stratton,Vermont,https://www.stratton.com/,"https://api.weather.gov/gridpoints/ALY/83,84/forecast"
Sugarbush Resort,true,44.135098,-72.885962,Warren,Vermont,http://www.sugarbush.com,"https://api.weather.gov/gridpoints/BTV/101,42/forecast"
Wisp Ski Resort,false,39.55806,-79.36306,McHenry,Maryland,,"https://api.weather.gov/gridpoints/LWX/12,91/forecast"
Big Snow American Dream,true,40.81111,-74.07,East Rutherford,New Jersey,http://bigsnowamericandream.com,"https://api.weather.gov/gridpoints/OKX/29,38/forecast"
Campgaw Mountain,false,41.0542633,-74.1993123,Campgaw Mountain Reservation,New Jersey,,"https://api.weather.gov/gridpoints/OKX/23,48/forecast"
Hidden Valley,false,41.1856,-74.4806,National Winter Activity Center,New Jersey,,"https://api.weather.gov/gridpoints/PHI/64,134/forecast"
Mountain Creek,false,41.181,-74.513,,New Jersey,http://www.mountaincreek.com,"https://api.weather.gov/gridpoints/PHI/63,133/forecast"
Belleayre Mountain,false,42.1422139,-74.510778,Town of Shandaken,New York,https://www.belleayre.com,"https://api.weather.gov/gridpoints/ALY/36,31/forecast"
Bristol Mountain Ski Resort,false,42.745,-77.404444,Town of South Bristol,New York,http://www.bristolmountain.com/,"https://api.weather.gov/gridpoints/BUF/85,46/forecast"
Catamount Ski Area,false,42.171457,-73.477764,Town of Hillsdale,New York,http://www.catamountski.com/,"https://api.weather.gov/gridpoints/ALY/71,38/forecast"
Gore Mountain,false,43.67222,-74.00694,Town of Johnsburg,New York,http://www.goremountain.com/,"https://api.weather.gov/gridpoints/ALY/42,103/forecast"
Greek Peak Mountain Resort,false,42.5085996,-76.1460485,Town of Virgil,New York,https://www.greekpeak.net,"https://api.weather.gov/gridpoints/BGM/55,74/forecast"
Holiday Valley,false,42.2625,-78.66806,Holiday Valley Lodge,New York,http://www.holidayvalley.com/,"https://api.weather.gov/gridpoints/BUF/45,18/forecast"
Hunter Mountain,false,42.200278,-74.230278,Town of Hunter,New York,https://www.huntermtn.com,"https://api.weather.gov/gridpoints/ALY/45,35/forecast"
McCauley Mountain,false,43.6925676,-74.9612837,McCauley Mountain Ski Area,New York,,"https://api.weather.gov/gridpoints/ALY/10,99/forecast"
Peek'n Peak,true,42.0625,-79.73667,Town of Clymer,New York,http://www.pknpk.com/,"https://api.weather.gov/gridpoints/BUF/10,5/forecast"
Plattekill Mountain,false,42.290251,-74.653678,Town of Roxbury,New York,,"https://api.weather.gov/gridpoints/BGM/106,71/forecast"
Thunder Ridge Ski Area,true,41.50722,-73.58111,,New York,http://www.thunderridgeski.com/,"https://api.weather.gov/gridpoints/OKX/41,72/forecast"
Titus Mountain,false,44.76333,-74.23528,Titus Mountain Family Ski Center,New York,https://www.titusmountain.com/,"https://api.weather.gov/gridpoints/BTV/52,64/forecast"
West Mountain,true,43.28556,-73.72833,,New York,http://www.westmtn.net/,"https://api.weather.gov/gridpoints/ALY/54,87/forecast"
Whiteface Mountain,false,44.36583,-73.90278,Town of Wilmington,New York,http://www.whiteface.com,"https://api.weather.gov/gridpoints/BTV/66,47/forecast"
Windham Mountain,false,42.29167,-74.25944,Town of Windham,New York,http://www.windhammountain.com/,"https://api.weather.gov/gridpoints/ALY/44,39/forecast"
Bear Creek Mountain Resort,false,40.47611,-75.62583,Longswamp Township,Pennsylvania,http://www.bcmr.com/,"https://api.weather.gov/gridpoints/PHI/29,96/forecast"
Blue Mountain Resort,false,40.82222,-75.51333,Lower Towamensing Township,Pennsylvania,,"https://api.weather.gov/gridpoints/PHI/31,112/forecast"
Boyce Park,false,40.46556,-79.74528,,Pennsylvania,,"https://api.weather.gov/gridpoints/PBZ/85,67/forecast"
Camelback Mountain Resort,false,41.05139,-75.35528,Pocono Township,Pennsylvania,http://www.skicamelback.com,"https://api.weather.gov/gridpoints/PHI/35,123/forecast"
Elk Mountain Ski Area,false,41.721,-75.559,,Pennsylvania,,"https://api.weather.gov/gridpoints/BGM/80,41/forecast"
Hidden Valley Resort,false,40.058042,-79.258277,Jefferson Township,Pennsylvania,http://www.hiddenvalleyresort.com,"https://api.weather.gov/gridpoints/CTP/24,17/forecast"
Jack Frost Ski Resort,false,41.111,-75.652,Kidder Township,Pennsylvania,,"https://api.weather.gov/gridpoints/PHI/24,125/forecast"
Liberty Mountain Resort,false,39.7635,-77.375,Carroll Valley,Pennsylvania,http://www.libertymountainresort.com,"https://api.weather.gov/gridpoints/CTP/91,12/forecast"
Mount Pleasant of Edinboro,false,41.85111,-80.07028,Mount Pleasant of Edinboro,Pennsylvania,,"https://api.weather.gov/gridpoints/CLE/136,86/forecast"
Seven Springs Mountain Resort,false,40.02306,-79.29278,Seven Springs,Pennsylvania,http://www.7springs.com,"https://api.weather.gov/gridpoints/CTP/23,15/forecast"
Shawnee Mountain Ski Area,true,41.04083,-75.08333,Middle Smithfield Township,Pennsylvania,http://www.shawneemt.com,"https://api.weather.gov/gridpoints/PHI/44,124/forecast"
Ski Big Bear,false,41.52333,-75.025,Big Bear Ski Resort,Pennsylvania,,"https://api.weather.gov/gridpoints/BGM/99,34/forecast"
Roundtop Mountain Resort,false,40.108,-76.926,Warrington Township,Pennsylvania,http://www.skiroundtop.com,"https://api.weather.gov/gridpoints/CTP/104,29/forecast"
Schwenksville,false,40.25639,-75.465,Schwenksville,Pennsylvania,,"https://api.weather.gov/gridpoints/PHI/36,87/forecast"
Montage Mountain Ski Resort,false,41.3533,-75.6592,Scranton,Pennsylvania,,"https://api.weather.gov/gridpoints/BGM/79,23/forecast"
Tussey Mountain,false,40.7682,-77.752,Centre Hall,Pennsylvania,http://www.tusseymountain.com,"https://api.weather.gov/gridpoints/CTP/72,55/forecast"
Whitetail Ski Resort,false,39.74167,-77.93278,Mercersburg,Pennsylvania,http://www.skiwhitetail.com,"https://api.weather.gov/gridpoints/CTP/72,8/forecast"
Appalachian Ski Mountain,false,36.174,-81.662,The Lodge,North Carolina,http://www.appskimtn.com/,"https://api.weather.gov/gridpoints/RNK/17,13/forecast"
Cataloochee Ski Area,false,35.563,-83.09,Town of Maggie Valley,North Carolina,http://www.cataloochee.com,"https://api.weather.gov/gridpoints/GSP/35,71/forecast"
Wolf Ridge Ski Resort,false,35.955,-82.509,Wolf Ridge Ski Resort,North Carolina,http://www.skiwolfridgenc.com/,"https://api.weather.gov/gridpoints/GSP/55,90/forecast"
Ober Gatlinburg,false,35.70306,-83.55778,Ober Gatlinburg Lodge,Tennessee,https://obergatlinburg.com,"https://api.weather.gov/gridpoints/MRX/85,41/forecast"
Bryce Resort,false,38.8175,-78.76583,Bryce Resort,Virginia,,"https://api.weather.gov/gridpoints/LWX/37,60/forecast"
Massanutten Mountain,false,38.643028,-78.612028,,Virginia,,"https://api.weather.gov/gridpoints/LWX/43,53/forecast"
The Omni Homestead Resort,false,37.9954722,-79.8296444,Hot Springs,Virginia,,"https://api.weather.gov/gridpoints/RNK/74,101/forecast"
Wintergreen Resort,false,37.93,-78.94167,,Virginia,http://www.wintergreenresort.com/,"https://api.weather.gov/gridpoints/LWX/35,20/forecast"
Canaan Valley Resort State Park,true,39.02361,-79.46583,,West Virginia,https://wvstateparks.com/park/holly-river-state-park/,"https://api.weather.gov/gridpoints/PBZ/102,3/forecast"
Snowshoe Mountain,false,38.40889,-79.99472,,West Virginia,http://www.snowshoemtn.com/,"https://api.weather.gov/gridpoints/RLX/119,75/forecast"
Winterplace Ski Resort,false,37.59,-81.115,,West Virginia,http://www.winterplace.com,"https://api.weather.gov/gridpoints/RNK/30,78/forecast"
Ski Snowstar,false,41.425,-90.7438,Ski Snowstar Winter Sports Park,Illinois,,"https://api.weather.gov/gridpoints/DVN/61,61/forecast"
Paoli Peaks,false,38.55778,-86.51028,Paoli Peaks,Indiana,http://www.paolipeaks.com,"https://api.weather.gov/gridpoints/LMK/21,89/forecast"
Perfect North Slopes,true,39.149208,-84.886581,,Indiana,http://www.perfectnorth.com/,"https://api.weather.gov/gridpoints/ILN/21,38/forecast"
Big Powderhorn Mountain,false,46.50417,-90.09611,,Michigan,,"https://api.weather.gov/gridpoints/MQT/65,63/forecast"
Blackjack Ski Resort,false,46.5021,-90.0046,,Michigan,http://skiblackjack.com,"https://api.weather.gov/gridpoints/MQT/68,63/forecast"
Boyne Mountain Resort,false,45.16389,-84.93278,Boyne Country Sports & Shops,Michigan,http://www.boyne.com/BoyneMountain/,"https://api.weather.gov/gridpoints/APX/49,66/forecast"
Caberfae Peaks Ski & Golf Resort,false,44.24972,-85.725,,Michigan,,"https://api.weather.gov/gridpoints/APX/26,21/forecast"
Crystal Mountain,true,44.52,-85.99222,The Lodge,Michigan,http://www.crystalmountain.com,"https://api.weather.gov/gridpoints/APX/16,33/forecast"
The Highlands at Harbor Springs,false,45.47083,-84.93472,,Michigan,https://www.highlandsharborsprings.com/,"https://api.weather.gov/gridpoints/APX/48,80/forecast"
Indianhead Mountain,false,46.5,-89.97083,Summit Center,Michigan,,"https://api.weather.gov/gridpoints/MQT/69,63/forecast"
Marquette Mountain,false,46.508,-87.42,Marquette,Michigan,http://www.marquettemountain.com,"https://api.weather.gov/gridpoints/MQT/152,68/forecast"
Mont Ripley,false,47.12917,-88.55944,Mont Ripley,Michigan,,"https://api.weather.gov/gridpoints/MQT/114,95/forecast"
Mount Bohemia,true,47.39167,-88.01361,,Michigan,http://www.mtbohemia.com/,"https://api.weather.gov/gridpoints/MQT/131,109/forecast"
Mount Brighton,false,42.53806,-83.80694,Brighton,Michigan,,"https://api.weather.gov/gridpoints/DTX/38,40/forecast"
Mulligan's Hollow Ski Bowl,false,43.0564,-86.2393,,Michigan,,"https://api.weather.gov/gridpoints/GRR/20,49/forecast"
Nub's Nob,true,45.47,-84.903,Harbor Springs,Michigan,http://nubsnob.com,"https://api.weather.gov/gridpoints/APX/49,80/forecast"
Pine Knob,false,42.7422524,-83.3671629,Village of Clarkston,Michigan,,"https://api.weather.gov/gridpoints/DTX/52,51/forecast"
Porcupine Mountains,false,46.78111,-89.68083,,Michigan,,"https://api.weather.gov/gridpoints/MQT/78,77/forecast"
Ski Brule,false,46.028,-88.701,Rental and Tech center,Michigan,,"https://api.weather.gov/gridpoints/MQT/112,43/forecast"
Timber Ridge Ski Area,false,42.391711,-85.779052,,Michigan,,"https://api.weather.gov/gridpoints/GRR/38,19/forecast"
Afton Alps,true,44.85556,-92.78917,Afton Alps,Minnesota,http://www.aftonalps.com/,"https://api.weather.gov/gridpoints/MPX/123,66/forecast"
Buck Hill,true,44.724,-93.283,Main Chalet,Minnesota,http://www.buckhill.com,"https://api.weather.gov/gridpoints/MPX/107,59/forecast"
Buena Vista Ski Area,false,47.65806,-94.87917,,Minnesota,,"https://api.weather.gov/gridpoints/FGF/161,92/forecast"
Hyland Hills Ski Area,true,44.844,-93.364,HSSA Chalet,Minnesota,https://www.threeriversparks.org/location/hyland-hills-ski-area,"https://api.weather.gov/gridpoints/MPX/104,65/forecast"
Lutsen Mountains,false,47.664,-90.714,Lutsen Mountains Snowsports Center,Minnesota,,"https://api.weather.gov/gridpoints/DLH/135,112/forecast"
Mount Kato,false,44.13139,-94.03639,Mankato,Minnesota,http://www.mountkato.com,"https://api.weather.gov/gridpoints/MPX/82,31/forecast"
Spirit Mountain,true,46.71944,-92.21806,Duluth,Minnesota,http://www.spiritmt.com,"https://api.weather.gov/gridpoints/DLH/87,66/forecast"
Welch Village,false,44.56056,-92.72722,Welch,Minnesota,,"https://api.weather.gov/gridpoints/MPX/126,52/forecast"
Wild Mountain,false,45.48889,-92.70556,Taylors Falls,Minnesota,http://www.wildmountain.com/,"https://api.weather.gov/gridpoints/MPX/126,95/forecast"
Hidden Valley Ski Area,false,38.535578,-90.65287,Hidden Valley,Missouri,,"https://api.weather.gov/gridpoints/LSX/78,69/forecast"
Snow Creek,false,39.468651,-94.971964,,Missouri,http://www.skisnowcreek.com/,"https://api.weather.gov/gridpoints/EAX/29,66/forecast"
Bottineau Winter Park,false,48.951,-100.473,Bottineau Winter Park,North Dakota,,"https://api.weather.gov/gridpoints/BIS/124,148/forecast"
Frost Fire Park,true,48.912,-98.068,Walhalla,North Dakota,http://www.frostfirepark.org,"https://api.weather.gov/gridpoints/FGF/60,154/forecast"
Huff Hills,false,46.62694,-100.72333,Ski Lodge,North Dakota,,"https://api.weather.gov/gridpoints/BIS/111,37/forecast"
Alpine Valley Ski Area,true,41.5303,-81.2662,Chesterland,Ohio,http://www.alpinevalleyohio.com/,"https://api.weather.gov/gridpoints/CLE/97,67/forecast"
Boston Mills/Brandywine Ski Resort,true,41.26417,-81.565,Boston Mills Ski Lodge,Ohio,http://www.bmbw.com,"https://api.weather.gov/gridpoints/CLE/88,54/forecast"
Mad River Mountain,false,40.3163167,-83.6805639,Valley Hi,Ohio,http://www.skimadriver.com/,"https://api.weather.gov/gridpoints/ILN/59,94/forecast"
Mystic Miner Ski Resort,false,44.3084333,-103.8184417,,South Dakota,,"https://api.weather.gov/gridpoints/UNR/77,69/forecast"
Great Bear Recreation Park,true,43.5821,-96.6649667,Sioux Falls,South Dakota,http://www.greatbearpark.com,"https://api.weather.gov/gridpoints/FSD/100,66/forecast"
Terry Peak,true,44.329,-103.835,,South Dakota,http://www.terrypeak.com/,"https://api.weather.gov/gridpoints/UNR/77,70/forecast"
Alpine Valley Resort,true,42.736,-88.428,Alpine Valley Resort,Wisconsin,http://www.alpinevalleyresort.com,"https://api.weather.gov/gridpoints/MKX/70,49/forecast"
Cascade Mountain,true,43.5039278,-89.5180167,Peak Lodge,Wisconsin,http://www.cascademountain.com/,"https://api.weather.gov/gridpoints/MKX/32,83/forecast"
Devil's Head Resort,true,43.42306,-89.62694,Devil's Head Resort,Wisconsin,https://www.devilsheadresort.com/ski-resort-mountain-sauk-merrimac-wi-wisconsin/,"https://api.weather.gov/gridpoints/MKX/29,79/forecast"
Granite Peak Ski Area,true,44.92861,-89.6825,Rib Mountain,Wisconsin,http://www.skigranitepeak.com/,"https://api.weather.gov/gridpoints/GRB/22,48/forecast"
Kettlebowl,false,45.271323,-88.90197883,Kettlebowl Ski Hill & Cross-country Trails,Wisconsin,,"https://api.weather.gov/gridpoints/GRB/47,65/forecast"
Telemark Lodge,false,46.190056,-91.247639,,Wisconsin,,"https://api.weather.gov/gridpoints/DLH/120,42/forecast"
Trollhaugen,false,45.35125,-92.61801,Dresser,Wisconsin,,"https://api.weather.gov/gridpoints/MPX/129,89/forecast"
Tyrol Basin,false,43.04,-89.77,Town of Vermont,Wisconsin,http://tyrolbasin.com,"https://api.weather.gov/gridpoints/MKX/24,61/forecast"
Wilmot Mountain,false,42.5,-88.18889,Town of Randall,Wisconsin,http://www.wilmotmountain.com,"https://api.weather.gov/gridpoints/MKX/79,39/forecast"
Arizona Snowbowl,false,35.33,-111.705,Arizona Snowbowl,Arizona,http://www.arizonasnowbowl.com,"https://api.weather.gov/gridpoints/FGZ/72,94/forecast"
Mount Lemmon Ski Valley,true,32.45222,-110.78389,,Arizona,http://www.skithelemmon.com/,"https://api.weather.gov/gridpoints/TWC/98,57/forecast"
Sunrise Park Resort,false,33.97333,-109.56472,Sunrise Park Resort,Arizona,https://sunrise.ski/,"https://api.weather.gov/gridpoints/FGZ/142,25/forecast"
Arapahoe Basin,false,39.64167,-105.87167,The Goat,Colorado,http://arapahoebasin.com,"https://api.weather.gov/gridpoints/BOU/31,58/forecast"
Aspen Highlands,false,39.18111,-106.85639,Aspen Highlands (Aspen Snowmass),Colorado,http://www.aspensnowmass.com,"https://api.weather.gov/gridpoints/GJT/154,101/forecast"
Aspen Mountain,false,39.18639,-106.81861,Rooftop Pool,Colorado,http://www.aspensnowmass.com,"https://api.weather.gov/gridpoints/GJT/155,101/forecast"
Buttermilk,false,39.205,-106.86056,,Colorado,http://www.aspensnowmass.com,"https://api.weather.gov/gridpoints/GJT/154,102/forecast"
Snowmass,false,39.1956,-106.9513,Snowmass Village,Colorado,http://www.aspensnowmass.com,"https://api.weather.gov/gridpoints/GJT/151,102/forecast"
Beaver Creek Resort,false,39.63139,-106.52167,,Colorado,http://www.beavercreek.com/,"https://api.weather.gov/gridpoints/GJT/167,120/forecast"
Breckenridge Ski Resort,true,39.48,-106.067,One Ski Hill Place,Colorado,http://www.breckenridge.com/,"https://api.weather.gov/gridpoints/BOU/24,52/forecast"
Copper Mountain,false,39.50167,-106.15639,,Colorado,http://www.coppercolorado.com,"https://api.weather.gov/gridpoints/BOU/21,53/forecast"
Crested Butte Mountain Resort,false,38.89972,-106.965,Mount Crested Butte,Colorado,http://www.skicb.com,"https://api.weather.gov/gridpoints/GJT/149,88/forecast"
Echo Mountain Resort,false,39.685,-105.51944,,Colorado,,"https://api.weather.gov/gridpoints/BOU/43,59/forecast"
Eldora Mountain Resort,false,39.9375,-105.58361,Eldora Mountain Resort,Colorado,http://eldora.com,"https://api.weather.gov/gridpoints/BOU/42,71/forecast"
Hesperus Ski Area,false,37.29778,-108.055,Ski Hesperus,Colorado,,"https://api.weather.gov/gridpoints/GJT/104,20/forecast"
Howelsen Hill Ski Area,false,40.483,-106.839,Howelsen Hill Ski Area,Colorado,,"https://api.weather.gov/gridpoints/GJT/160,159/forecast"
Kendall Mountain Ski Area,false,37.81135,-107.65652,Silverton,Colorado,,"https://api.weather.gov/gridpoints/GJT/120,42/forecast"
Keystone Resort,false,39.605,-105.95417,Keystone Resort,Colorado,http://www.keystoneresort.com/,"https://api.weather.gov/gridpoints/BOU/28,57/forecast"
Loveland Ski Area,true,39.68,-105.897,Ski Patrol,Colorado,http://www.skiloveland.com,"https://api.weather.gov/gridpoints/BOU/30,60/forecast"
Monarch Ski Area,true,38.5125,-106.3325,,Colorado,http://www.skimonarch.com,"https://api.weather.gov/gridpoints/PUB/35,80/forecast"
Powderhorn Resort,true,39.06306,-108.15556,,Colorado,http://www.powderhorn.com,"https://api.weather.gov/gridpoints/GJT/108,99/forecast"
Purgatory Resort,true,37.62972,-107.81444,,Colorado,http://www.purgatoryresort.com/,"https://api.weather.gov/gridpoints/GJT/114,34/forecast"
Silverton Mountain,false,37.8847,-107.66529,Silverton Mountain,Colorado,http://www.silvertonmountain.com,"https://api.weather.gov/gridpoints/GJT/120,45/forecast"
Ski Cooper,false,39.36,-106.302,Ski Cooper,Colorado,http://www.skicooper.com/,"https://api.weather.gov/gridpoints/PUB/39,118/forecast"
Steamboat Ski Resort,true,40.459,-106.803,,Colorado,http://www.steamboat.com,"https://api.weather.gov/gridpoints/GJT/161,158/forecast"
Sunlight Ski Area,false,39.399806,-107.339278,Ski Sunlight Mountain Resort,Colorado,http://www.sunlightmtn.com/,"https://api.weather.gov/gridpoints/GJT/138,112/forecast"
Telluride Ski Resort,false,37.93639,-107.82028,,Colorado,http://tellurideskiresort.com,"https://api.weather.gov/gridpoints/GJT/115,48/forecast"
Vail Ski Resort,false,39.639,-106.374,,Colorado,http://www.vail.com/,"https://api.weather.gov/gridpoints/GJT/173,120/forecast"
Winter Park Resort,false,39.88694,-105.7625,Admin Building,Colorado,http://winterparkresort.com,"https://api.weather.gov/gridpoints/BOU/36,69/forecast"
Wolf Creek ski area,false,37.47222,-106.79333,,Colorado,http://www.wolfcreekski.com,"https://api.weather.gov/gridpoints/PUB/14,35/forecast"
Bald Mountain Ski Area,false,46.57,-115.87,,Idaho,,"https://api.weather.gov/gridpoints/MSO/42,125/forecast"
Bogus Basin,true,43.764,-116.104,,Idaho,http://www.bogusbasin.org,"https://api.weather.gov/gridpoints/BOI/137,91/forecast"
Brundage Mountain,true,45.005,-116.155,,Idaho,http://www.brundage.com,"https://api.weather.gov/gridpoints/BOI/144,148/forecast"
Cottonwood Butte,true,46.0755,-116.4528,Cottonwood Butte Ski Area,Idaho,http://www.cottonwoodbutte.org/,"https://api.weather.gov/gridpoints/MSO/19,105/forecast"
Kelly Canyon,false,43.64583,-111.63,Kelly Canyon Ski Lodge,Idaho,http://www.kellycanyonresort.com/,"https://api.weather.gov/gridpoints/PIH/130,79/forecast"
Little Ski Hill,false,44.93,-116.16306,,Idaho,http://www.littleskihill.org/,"https://api.weather.gov/gridpoints/BOI/143,145/forecast"
Lookout Pass Ski and Recreation Area,true,47.453,-115.707,,Montana,http://www.skilookout.com,"https://api.weather.gov/gridpoints/MSO/53,165/forecast"
Lost Trail Powder Mountain,true,45.692,-113.952,Lost Trail Powder Mountain,Montana,http://www.losttrail.com,"https://api.weather.gov/gridpoints/MSO/98,75/forecast"
Magic Mountain Resort,false,42.188306,-114.286111,Magic Mountain Resort,Idaho,,"https://api.weather.gov/gridpoints/BOI/187,10/forecast"
Pebble Creek,false,42.778,-112.16,,Idaho,,"https://api.weather.gov/gridpoints/PIH/107,41/forecast"
Sandpoint,false,48.267,-116.567,,Idaho,http://www.cityofsandpoint.com/,"https://api.weather.gov/gridpoints/OTX/172,114/forecast"
Pomerelle,false,42.318,-113.608,,Idaho,http://www.pomerelle.com,"https://api.weather.gov/gridpoints/PIH/55,27/forecast"
Rotarun Ski Area,false,43.4975,-114.366,Rotarun Ski Area,Idaho,http://rotarunskiarea.org,"https://api.weather.gov/gridpoints/PIH/38,84/forecast"
Schweitzer Mountain,false,48.367,-116.623,,Idaho,http://www.schweitzer.com,"https://api.weather.gov/gridpoints/OTX/171,119/forecast"
Silver Mountain,true,47.495,-116.135,Wardner,Idaho,http://www.silvermt.com,"https://api.weather.gov/gridpoints/OTX/180,76/forecast"
Snowhaven,false,45.869,-116.09,Snowhaven Ski Patrol,Idaho,http://grangeville.us/snowhaven-ski-and-tubing-hill/,"https://api.weather.gov/gridpoints/MSO/29,93/forecast"
Soldier Mountain,false,43.485,-114.83,Soldier Mountain Ski Area,Idaho,https://soldiermountain.com/,"https://api.weather.gov/gridpoints/BOI/177,72/forecast"
Bald Mountain,false,43.655,-114.40917,,Idaho,http://www.sunvalley.com,"https://api.weather.gov/gridpoints/PIH/37,92/forecast"
Tamarack Resort,false,44.671,-116.123,,Idaho,,"https://api.weather.gov/gridpoints/BOI/143,133/forecast"
Bear Paw Ski Bowl,false,48.1644,-109.6702194,,Montana,https://web.archive.org/web/20061029144905/http://www.skibearpaw.com:80/,"https://api.weather.gov/gridpoints/TFX/153,169/forecast"
Big Sky Resort,false,45.25,-111.41667,,Montana,http://www.bigskyresort.com/,"https://api.weather.gov/gridpoints/TFX/81,38/forecast"
Blacktail Mountain Ski Area,true,48.01306,-114.24694,,Montana,http://www.blacktailmountain.com/,"https://api.weather.gov/gridpoints/MSO/104,185/forecast"
Bridger Bowl Ski Area,false,45.818,-110.897,,Montana,https://bridgerbowl.com,"https://api.weather.gov/gridpoints/TFX/101,63/forecast"
Discovery Ski Area,true,46.25639,-113.24194,,Montana,http://www.skidiscovery.com/,"https://api.weather.gov/gridpoints/MSO/124,98/forecast"
Great Divide Montana,false,46.7497,-112.3043,,Montana,http://www.skigd.com,"https://api.weather.gov/gridpoints/TFX/61,112/forecast"
Lost Trail Powder Mountain,true,45.692,-113.952,Lost Trail Powder Mountain,Montana,http://www.losttrail.com,"https://api.weather.gov/gridpoints/MSO/98,75/forecast"
Maverick Mountain Ski Area,false,45.435,-113.12944,Maverick Mountain Lodge,Montana,http://skimaverick.com,"https://api.weather.gov/gridpoints/TFX/26,54/forecast"
Montana Snowbowl,false,47.02,-114.0,,Montana,http://www.montanasnowbowl.com,"https://api.weather.gov/gridpoints/MSO/105,137/forecast"
Moonlight Basin,false,45.31417,-111.45083,The Reserve at Moonlight Basin,Montana,http://www.bigskyresort.com/,"https://api.weather.gov/gridpoints/TFX/80,41/forecast"
Red Lodge Mountain,false,45.191,-109.335,,Montana,http://www.redlodgemountain.com,"https://api.weather.gov/gridpoints/BYZ/72,66/forecast"
Showdown Ski Area,true,46.83861,-110.70889,,Montana,http://www.showdownmontana.com/,"https://api.weather.gov/gridpoints/TFX/113,110/forecast"
Teton Pass Ski Area,true,47.92806,-112.81528,,Montana,https://www.skitetonmt.com/,"https://api.weather.gov/gridpoints/TFX/52,170/forecast"
Turner Mountain Ski Resort,false,48.605,-115.63,,Montana,http://www.skiturner.com,"https://api.weather.gov/gridpoints/MSO/64,220/forecast"
Whitefish Mountain Resort,false,48.5,-114.34,,Montana,http://www.skiwhitefish.com/,"https://api.weather.gov/gridpoints/MSO/104,209/forecast"
Yellowstone Club,false,45.2313833,-111.4512556,,Montana,,"https://api.weather.gov/gridpoints/TFX/79,37/forecast"
Angel Fire Resort,false,36.3875,-105.27333,Angel Fire,New Mexico,http://www.angelfireresort.com,"https://api.weather.gov/gridpoints/ABQ/152,172/forecast"
Pajarito Mountain Ski Area,false,35.89417,-106.39028,Byrdie's Place,New Mexico,http://www.pajarito.ski/,"https://api.weather.gov/gridpoints/ABQ/110,153/forecast"
Sandia Peak Ski Area,true,35.2070056,-106.4134472,Double Eagle Day Lodge,New Mexico,http://www.sandiapeak.com,"https://api.weather.gov/gridpoints/ABQ/106,123/forecast"
Sipapu Ski & Summer Resort,false,36.154211,-105.548508,Sipapu Ski & Summer Resort,New Mexico,http://www.sipapunm.com/,"https://api.weather.gov/gridpoints/ABQ/141,162/forecast"
Ski Apache,true,33.39722,-105.79917,,New Mexico,https://skiapache.com/,"https://api.weather.gov/gridpoints/ABQ/122,41/forecast"
Ski Cloudcroft,true,32.9507083,-105.7072417,Cloudcroft,New Mexico,https://skicloudcroft.net/,"https://api.weather.gov/gridpoints/EPZ/132,105/forecast"
Ski Santa Fe,true,35.796325,-105.8012806,Ski Santa Fe Lodge,New Mexico,http://www.skisantafe.com,"https://api.weather.gov/gridpoints/ABQ/131,147/forecast"
Taos Ski Valley,false,36.59778,-105.445,,New Mexico,,"https://api.weather.gov/gridpoints/ABQ/146,182/forecast"
Alta Ski Area,false,40.58083,-111.63722,Alta,Utah,http://www.alta.com,"https://api.weather.gov/gridpoints/SLC/107,165/forecast"
Beaver Mountain,false,41.968,-111.541,Beaver Mountain Lodge,Utah,http://www.skithebeav.com,"https://api.weather.gov/gridpoints/SLC/118,228/forecast"
Brian Head Ski Resort,false,37.683,-112.833,,Utah,,"https://api.weather.gov/gridpoints/SLC/49,41/forecast"
Brighton Ski Resort,true,40.6,-111.58333,Brighton,Utah,http://www.brightonresort.com/,"https://api.weather.gov/gridpoints/SLC/109,166/forecast"
Cherry Peak Resort,false,41.92639,-111.75667,Richmond,Utah,http://www.skicherrypeak.com,"https://api.weather.gov/gridpoints/SLC/111,227/forecast"
Deer Valley,false,40.62278,-111.48944,Goldener Hirsch Inn,Utah,http://www.deervalley.com/,"https://api.weather.gov/gridpoints/SLC/112,166/forecast"
Elk Mountain,false,38.32056,-112.39167,,Utah,http://www.skieaglepoint.com,"https://api.weather.gov/gridpoints/SLC/68,67/forecast"
Nordic Valley,false,41.3,-111.8583,,Utah,,"https://api.weather.gov/gridpoints/SLC/104,199/forecast"
Park City Mountain Resort,true,40.65083,-111.5075,Marriott's MountainSide,Utah,http://www.parkcitymountain.com/,"https://api.weather.gov/gridpoints/SLC/112,168/forecast"
Powder Mountain,false,41.38,-111.78028,,Utah,,"https://api.weather.gov/gridpoints/SLC/107,202/forecast"
Snowbasin,false,41.216,-111.857,Earl's Lodge,Utah,http://www.snowbasin.com,"https://api.weather.gov/gridpoints/SLC/103,195/forecast"
Snowbird,true,40.58111,-111.65639,,Utah,http://www.snowbird.com,"https://api.weather.gov/gridpoints/SLC/106,165/forecast"
Solitude Mountain Resort,false,40.615139,-111.588917,Solitude,Utah,,"https://api.weather.gov/gridpoints/SLC/109,167/forecast"
Sundance Resort,false,40.392,-111.579,,Utah,http://www.sundanceresort.com,"https://api.weather.gov/gridpoints/SLC/108,156/forecast"
Shell,false,44.53556,-107.77917,,Wyoming,,"https://api.weather.gov/gridpoints/RIW/145,176/forecast"
Beartooth Basin Summer Ski Area,true,44.9754616,-109.4353466,,Wyoming,http://www.beartoothbasin.com/,"https://api.weather.gov/gridpoints/RIW/92,202/forecast"
Grand Targhee Resort,true,43.789,-110.957,,Wyoming,http://www.grandtarghee.com,"https://api.weather.gov/gridpoints/RIW/36,153/forecast"
Hogadon Ski Area,true,42.7449611,-106.3394278,,Wyoming,http://hogadon.net/,"https://api.weather.gov/gridpoints/RIW/186,89/forecast"
Jackson Hole Mountain Resort,true,43.59,-110.89,,Wyoming,https://jacksonhole.com/,"https://api.weather.gov/gridpoints/RIW/37,143/forecast"
Ten Sleep,false,44.03472,-107.44806,,Wyoming,,"https://api.weather.gov/gridpoints/RIW/154,152/forecast"
Pine Creek Ski Area,false,42.1031083,-110.8287889,Pine Creek Ski Resort,Wyoming,http://www.pinecreekskiresort.com/,"https://api.weather.gov/gridpoints/RIW/31,75/forecast"
Cody,false,44.52333,-109.05722,Cody,Wyoming,,"https://api.weather.gov/gridpoints/RIW/103,180/forecast"
Snow King Mountain,false,43.472,-110.761,Jackson,Wyoming,http://www.snowkingmountain.com/,"https://api.weather.gov/gridpoints/RIW/41,137/forecast"
Snowy Range Ski Area,true,41.341231,-106.183441,,Wyoming,http://www.snowyrangeski.com/,"https://api.weather.gov/gridpoints/CYS/63,25/forecast"
White Pine Ski Resort,false,42.9778389,-109.7581722,,Wyoming,http://www.whitepineski.com/,"https://api.weather.gov/gridpoints/RIW/72,111/forecast"
Arctic Valley Ski Area,false,61.24667,-149.65056,,Alaska,https://arcticvalley.org,"https://api.weather.gov/gridpoints/AER/129,237/forecast"
Alyeska Resort,true,60.9705,-149.0982,The Hotel Alyeska,Alaska,http://www.alyeskaresort.com/,"https://api.weather.gov/gridpoints/AER/139,227/forecast"
Eaglecrest Ski Area,false,58.27611,-134.51528,Juneau,Alaska,http://skieaglecrest.com/,"https://api.weather.gov/gridpoints/AJK/192,161/forecast"
Hilltop Ski Area,true,61.14083,-149.745,Hilltop Chalet,Alaska,http://www.hilltopskiarea.org/,"https://api.weather.gov/gridpoints/AER/128,233/forecast"
Moose Mountain,false,64.94056,-147.99056,,Alaska,,"https://api.weather.gov/gridpoints/AFG/488,123/forecast"
Mount Eyak,false,60.55,-145.75,Cordova,Alaska,,"https://api.weather.gov/gridpoints/AER/201,214/forecast"
Skiland,false,65.04889,-147.40917,Mt. Aurora Skiland,Alaska,http://www.skilandfairbanks.com/,"https://api.weather.gov/gridpoints/AFG/497,127/forecast"
Alpine Meadows,false,39.164,-120.239,Alpine Meadows Base Lodge,California,https://www.palisadestahoe.com,"https://api.weather.gov/gridpoints/REV/26,92/forecast"
Badger Pass Ski Area,true,37.66194,-119.6636,Badger Pass Ski Lodge,California,http://www.travelyosemite.com/winter/yosemite-ski-snowboard-area/,"https://api.weather.gov/gridpoints/HNX/64,139/forecast"
Bear Mountain,true,34.2267,-116.8602,Bear Mountain,California,http://www.bearmountain.com/,"https://api.weather.gov/gridpoints/SGX/77,77/forecast"
Bear Valley,false,38.492,-120.044,Bear Valley Day Lodge,California,http://www.bearvalley.com,"https://api.weather.gov/gridpoints/STO/89,54/forecast"
Boreal Mountain Resort,false,39.3317,-120.3511,,California,http://www.rideboreal.com,"https://api.weather.gov/gridpoints/STO/86,93/forecast"
Buckhorn Ski Club,false,34.34457,-117.91437,,California,,"https://api.weather.gov/gridpoints/LOX/168,55/forecast"
China Peak,true,37.2297,-119.1583,,California,http://www.skichinapeak.com,"https://api.weather.gov/gridpoints/HNX/78,117/forecast"
Coppervale Ski Area,false,40.345,-120.904,Westwood,California,,"https://api.weather.gov/gridpoints/REV/14,149/forecast"
Dodge Ridge Ski Area,true,38.1896,-119.9564,Creekside Lodge,California,http://www.dodgeridge.com/,"https://api.weather.gov/gridpoints/STO/90,40/forecast"
Donner Ski Ranch,false,39.3183139,-120.3300194,,California,http://www.donnerskiranch.com/,"https://api.weather.gov/gridpoints/STO/86,92/forecast"
Granlibakken,false,39.1556,-120.1551,Granlibakken Tahoe,California,,"https://api.weather.gov/gridpoints/REV/29,91/forecast"
Heavenly Mountain Resort,true,38.9353,-119.94,California Lodge,California,http://www.skiheavenly.com,"https://api.weather.gov/gridpoints/REV/35,80/forecast"
Homewood Mountain Resort,true,39.0827,-120.1755,,California,http://www.skihomewood.com/,"https://api.weather.gov/gridpoints/REV/28,88/forecast"
June Mountain ski area,false,37.7683,-119.0906,June Lake,California,http://www.junemountain.com,"https://api.weather.gov/gridpoints/REV/55,23/forecast"
Kirkwood Mountain Resort,false,38.684,-120.068,,California,http://www.kirkwood.com,"https://api.weather.gov/gridpoints/STO/90,62/forecast"
Mammoth Mountain Ski Area,false,37.63056,-119.0325,,California,http://www.mammothmountain.com/,"https://api.weather.gov/gridpoints/REV/56,16/forecast"
Mount Baldy Ski Lifts,false,34.27,-117.62,,California,http://mtbaldyresort.com,"https://api.weather.gov/gridpoints/SGX/50,84/forecast"
Mount Shasta Ski Park,true,41.32083,-122.20389,Upper Lodge,California,http://www.skipark.com,"https://api.weather.gov/gridpoints/MFR/118,23/forecast"
Mount Waterman,true,34.349722,-117.928611,Mount Waterman,California,http://www.mtwaterman.org/,"https://api.weather.gov/gridpoints/LOX/168,55/forecast"
Mountain High,false,34.37472,-117.69323,Big Pines,California,http://www.mthigh.com,"https://api.weather.gov/gridpoints/LOX/176,55/forecast"
Northstar California,false,39.264,-120.125,Big Springs Express Gondola Upper Lift House,California,http://northstarcalifornia.com,"https://api.weather.gov/gridpoints/REV/31,95/forecast"
Sierra-at-Tahoe,false,38.8002,-120.0806,Base Lodge,California,http://www.sierraattahoe.com,"https://api.weather.gov/gridpoints/STO/91,68/forecast"
Snow Summit,false,34.2286,-116.8911,,California,http://www.snowsummit.com,"https://api.weather.gov/gridpoints/SGX/76,77/forecast"
Snow Valley Mountain Resort,false,34.223375,-117.037423,,California,http://www.snow-valley.com//,"https://api.weather.gov/gridpoints/SGX/71,78/forecast"
Palisades Tahoe,false,39.196,-120.235,Olympic Valley,California,http://www.palisadestahoe.com,"https://api.weather.gov/gridpoints/REV/27,93/forecast"
Sugar Bowl Ski Resort,false,39.30444,-120.33583,,California,,"https://api.weather.gov/gridpoints/STO/86,92/forecast"
Tahoe Donner Downhill,true,39.3549,-120.259,Tahoe Donner Day Lodge,California,http://www.skitahoedonner.com,"https://api.weather.gov/gridpoints/REV/27,100/forecast"
Diamond Peak,false,39.254,-119.924,,Nevada,,"https://api.weather.gov/gridpoints/REV/38,94/forecast"
Lee Canyon,false,36.301638,-115.680759,Las Vegas Ski and Snowboard Resort,Nevada,,"https://api.weather.gov/gridpoints/VEF/103,106/forecast"
Mount Rose Ski Tahoe,true,39.32917,-119.88583,Employee Lockers,Nevada,http://www.skirose.com/,"https://api.weather.gov/gridpoints/REV/40,97/forecast"
Anthony Lakes,false,44.964,-118.235,,Oregon,http://www.anthonylakes.com/,"https://api.weather.gov/gridpoints/PDT/143,63/forecast"
Cooper Spur ski area,true,45.41228,-121.60501,,Oregon,http://www.cooperspur.com/,"https://api.weather.gov/gridpoints/PQR/145,91/forecast"
Ferguson Ridge Ski Area,true,45.28209,-117.11285,,Oregon,http://www.skifergi.com,"https://api.weather.gov/gridpoints/PDT/182,71/forecast"
Hoodoo,true,44.409,-121.872,,Oregon,http://skihoodoo.com/,"https://api.weather.gov/gridpoints/PQR/127,47/forecast"
Mount Ashland Ski Area,true,42.08333,-122.71667,,Oregon,http://www.mtashland.com,"https://api.weather.gov/gridpoints/MFR/108,61/forecast"
Mount Bachelor ski area,true,44.003,-121.677,Mt. Bachelor Gravity Sports Yurt #1,Oregon,http://www.mtbachelor.com,"https://api.weather.gov/gridpoints/PDT/22,40/forecast"
Mount Hood Meadows,false,45.32889,-121.6625,,Oregon,http://www.skihood.com/,"https://api.weather.gov/gridpoints/PQR/143,87/forecast"
Mount Hood Skibowl,false,45.30189,-121.773212,Government Camp,Oregon,http://www.skibowl.com/,"https://api.weather.gov/gridpoints/PQR/139,87/forecast"
Timberline Lodge ski area,false,45.33,-121.71,Wy'East Day Lodge,Oregon,http://www.timberlinelodge.com/,"https://api.weather.gov/gridpoints/PQR/141,88/forecast"
Summit Pass,false,45.303,-121.7472,Government Camp,Oregon,https://www.timberlinelodge.com/mountain/summit-pass,"https://api.weather.gov/gridpoints/PQR/140,87/forecast"
Warner Canyon,true,42.23749,-120.29583,,Oregon,https://www.warnercanyonski.com/,"https://api.weather.gov/gridpoints/MFR/190,52/forecast"
Willamette Pass Resort,false,43.6,-122.036,,Oregon,http://www.willamettepass.com,"https://api.weather.gov/gridpoints/MFR/145,125/forecast"
49 Degrees North Ski Area,true,48.301,-117.563,,Washington,http://www.ski49n.com/,"https://api.weather.gov/gridpoints/OTX/141,121/forecast"
Badger Mountain Ski Area,false,47.61273,-120.12978,Waterville,Washington,http://www.skibadgermt.com/,"https://api.weather.gov/gridpoints/OTX/54,103/forecast"
Crystal Mountain,true,46.93,-121.48,,Washington,http://www.crystalmountainresort.com/,"https://api.weather.gov/gridpoints/SEW/144,30/forecast"
Echo Valley Ski Area,true,47.93583,-120.05611,,Washington,https://skiechovalley.com/,"https://api.weather.gov/gridpoints/OTX/59,118/forecast"
Hurricane Ridge Ski and Snowboard Area,true,47.971,-123.493,,Washington,http://www.hurricaneridge.net,"https://api.weather.gov/gridpoints/SEW/91,92/forecast"
Leavenworth Ski Hill,false,47.61437,-120.66859,Ticket Booth,Washington,http://www.skileavenworth.com/,"https://api.weather.gov/gridpoints/OTX/37,106/forecast"
Loup Loup Ski Bowl,true,48.39472,-119.91278,Loup Loup Ski Bowl,Washington,http://www.skitheloup.com/,"https://api.weather.gov/gridpoints/OTX/68,138/forecast"
Meany Lodge,false,47.28028,-121.32056,Meany Lodge,Washington,http://www.meanylodge.org,"https://api.weather.gov/gridpoints/PDT/64,189/forecast"
Mission Ridge Ski Area,false,47.292,-120.399,Mission Ridge Resort,Washington,http://www.missionridge.com,"https://api.weather.gov/gridpoints/OTX/43,89/forecast"
Mt. Baker Ski Area,false,48.862,-121.654,White Salmon Lodge,Washington,http://www.mtbaker.us,"https://api.weather.gov/gridpoints/SEW/157,122/forecast"
Mount Spokane Ski and Snowboard Park,true,47.922,-117.097,Lodge #2,Washington,https://www.mtspokane.com,"https://api.weather.gov/gridpoints/OTX/153,101/forecast"
Sitzmark Ski Area,false,48.865,-119.164,,Washington,https://www.facebook.com/SitzmarkSkiArea/,"https://api.weather.gov/gridpoints/OTX/95,156/forecast"
Ski Bluewood,false,46.082,-117.851,,Washington,http://www.bluewood.com,"https://api.weather.gov/gridpoints/PDT/164,112/forecast"
Stevens Pass Ski Area,true,47.74472,-121.08889,Pacific Crest Lodge,Washington,http://www.stevenspass.com,"https://api.weather.gov/gridpoints/SEW/164,66/forecast"
The Summit at Snoqualmie,false,47.424,-121.416,Summit West Base Lodge,Washington,http://www.summitatsnoqualmie.com/,"https://api.weather.gov/gridpoints/SEW/151,53/forecast"
Alpental,false,47.44306,-121.42944,,Washington,,"https://api.weather.gov/gridpoints/SEW/151,54/forecast"
White Pass Ski Area,false,46.638,-121.391,,Washington,http://www.skiwhitepass.com,"https://api.weather.gov/gridpoints/SEW/144,16/forecast"
